{
"type": "FeatureCollection",
"metadata": {
  "source": "JRC Global Surface Water v1.5 (1984–2024)",
  "attribution": "Source: EC JRC/Google",
  "citation": "Jean-Francois Pekel, Andrew Cottam, Noel Gorelick, Alan S. Belward, High-resolution mapping of global surface water and its long-term changes. Nature 540, 418-422 (2016). https://doi.org/10.1038/nature20584",
  "licence": "Copernicus / EC JRC open data — free reuse with attribution and citation",
  "note": "NEVER merge this file with data/tr-inland-water.geojson (ODbL). Separate source, separate licence, separate file; they meet only as pixels in one rendered SVG (DEC 2026-08-01r-1).",
  "generatedAt": "2026-08-04T00:02:12.143Z",
  "recipe": {
    "occurrenceThresholdPercent": 10,
    "closingRadiusM": 300,
    "closingRadiusPx": 10,
    "fillInteriorHoles": true,
    "componentRule": "with-fragments",
    "identityNeighbourPx": 67,
    "snapshotEpsilonSvgUnits": 0.05,
    "pixelSizeDeg": 0.00025
  },
  "granules": {
    "occurrence_20E_40N_v1_5_2024.tif": {
      "bytes": 75147916,
      "sha256": "0c1bc09f08317d9b893a6858e0fc9a26628fed322c0eb97b0ab0d1b04924f937"
    },
    "occurrence_30E_40N_v1_5_2024.tif": {
      "bytes": 47164728,
      "sha256": "dc41507f8e22a9d36da5793f9f9ff9ceba222ff8abe7d618b37e03c93d62f9df"
    },
    "occurrence_40E_40N_v1_5_2024.tif": {
      "bytes": 64804658,
      "sha256": "30db9dbcae93d6b297b87584aa358729d0aef4a43ec5bd298fbf2e5810333e50"
    },
    "occurrence_20E_50N_v1_5_2024.tif": {
      "bytes": 48496064,
      "sha256": "6a1163a9563219c3d147f6e7f1cf274b9e64cddf45465b6ef6dc4f15a7c3b83b"
    },
    "occurrence_30E_50N_v1_5_2024.tif": {
      "bytes": 60514280,
      "sha256": "f128ac90c5698a48c19df7cf29141a0294d38bdfeb534b602525d8c5b62e0f25"
    },
    "occurrence_40E_50N_v1_5_2024.tif": {
      "bytes": 94913980,
      "sha256": "725266cdc5058b7c9de80834cd4506c0f110d69c93b9ff72373e2fdea5241975"
    },
    "extent_20E_40N_v1_5_2024.tif": {
      "bytes": 15647932,
      "sha256": "de73cd84bf3e330063dd61d9e96915848e904db976d7f3bf1879e228bb00ff37"
    },
    "extent_30E_40N_v1_5_2024.tif": {
      "bytes": 17016654,
      "sha256": "e9c4efc9d4bccf2a7e753d4eeea25e2f35d2ac575a5276e33b28e2410072b7dc"
    },
    "extent_40E_40N_v1_5_2024.tif": {
      "bytes": 22138790,
      "sha256": "ce9f8c1cffd21ee687bbe29d5be61a379e86a36f1155484781b0f5c179ed1d61"
    },
    "extent_20E_50N_v1_5_2024.tif": {
      "bytes": 18546944,
      "sha256": "67c7285fc41719b578fd677b620483f5d205c18bccd7c41b427af47a2ade7f2c"
    },
    "extent_30E_50N_v1_5_2024.tif": {
      "bytes": 18040066,
      "sha256": "b252ee4abab6aadc7f72ff9544052d5f8cdc9971cb68317e7a0b32e10d5dbe18"
    },
    "extent_40E_50N_v1_5_2024.tif": {
      "bytes": 22610010,
      "sha256": "7e3be46611a8aac49213ddc966e9837814d6c129925a7fda41affe7de2eac5bc"
    }
  },
  "reduction": "Douglas–Peucker vertex SUBSET in the pinned TR frame. Every coordinate is an exact GSW pixel-corner value; areaKm2 is measured on the traced rings before reduction."
},
"features": [
{"type":"Feature","properties":{"id":"gsw-01","name":"Tuz Gölü","wikidata":"Q211823","areaKm2":1292.5674,"rings":268,"nodes":2732,"identity":{"minLon":33.352,"maxLon":33.36,"minLat":38.741,"maxLat":38.749},"window":{"minLon":33,"maxLon":34.2,"minLat":38.33,"maxLat":39.37},"identityNeighbourPx":67,"componentsIdentity":1,"componentsTotal":11620,"componentsUsed":5893,"extentCoveragePct":92.62},"geometry":{"type":"MultiPolygon","coordinates":[[[[33.319,39.13],[33.32625,39.128],[33.33525,39.1285],[33.3395,39.12675],[33.34375,39.12225],[33.356,39.11375],[33.3615,39.10775],[33.374,39.10125],[33.378,39.09725],[33.3945,39.08775],[33.4025,39.0805],[33.40575,39.07925],[33.413,39.0725],[33.4165,39.06675],[33.4205,39.0655],[33.42325,39.063],[33.42375,39.05675],[33.43375,39.05025],[33.4395,39.0385],[33.444,39.03325],[33.44575,39.0245],[33.4425,39.0225],[33.4425,39.01875],[33.44675,39.01375],[33.45575,39.01025],[33.457,39.00175],[33.461,38.997],[33.46275,38.992],[33.45825,38.9875],[33.4495,38.983],[33.44825,38.97975],[33.44325,38.9745],[33.44525,38.96875],[33.449,38.967],[33.452,38.9675],[33.45325,38.966],[33.4485,38.96275],[33.44375,38.96425],[33.4405,38.9625],[33.4395,38.96025],[33.44125,38.95575],[33.43475,38.95375],[33.43125,38.955],[33.43,38.952],[33.42325,38.953],[33.42025,38.9485],[33.42025,38.941],[33.423,38.934],[33.4245,38.93325],[33.4235,38.92875],[33.427,38.91425],[33.42575,38.90175],[33.42675,38.89275],[33.42425,38.88675],[33.41975,38.88175],[33.4195,38.8735],[33.41675,38.87325],[33.41275,38.868],[33.415,38.86275],[33.416,38.85325],[33.4275,38.8465],[33.4335,38.8455],[33.4355,38.8425],[33.44125,38.841],[33.4485,38.8335],[33.45025,38.833],[33.453,38.8345],[33.45225,38.83175],[33.4545,38.82775],[33.46025,38.82825],[33.457,38.82675],[33.45725,38.823],[33.46325,38.82025],[33.4725,38.812],[33.479,38.8035],[33.47925,38.801],[33.496,38.7815],[33.49925,38.7815],[33.5025,38.779],[33.50575,38.7785],[33.50525,38.7745],[33.5085,38.77375],[33.5125,38.76925],[33.519,38.76675],[33.52225,38.76775],[33.5205,38.76625],[33.52025,38.763],[33.52425,38.7615],[33.52475,38.76],[33.52,38.7605],[33.5185,38.75825],[33.52025,38.74975],[33.52425,38.74775],[33.521,38.7455],[33.5215,38.73925],[33.527,38.73675],[33.52925,38.73825],[33.52875,38.7415],[33.53275,38.7395],[33.53275,38.73625],[33.528,38.73625],[33.526,38.73425],[33.52475,38.72875],[33.527,38.72625],[33.5305,38.72625],[33.53175,38.7245],[33.534,38.7245],[33.5375,38.72675],[33.538,38.725],[33.54,38.72425],[33.5425,38.7195],[33.54625,38.71625],[33.544,38.715],[33.54375,38.712],[33.539,38.71375],[33.5365,38.713],[33.5355,38.70925],[33.53825,38.70725],[33.541,38.70725],[33.5435,38.703],[33.5485,38.7025],[33.5515,38.6995],[33.54775,38.69825],[33.547,38.693],[33.544,38.69225],[33.5415,38.68475],[33.53925,38.68475],[33.538,38.687],[33.5345,38.68725],[33.52875,38.68],[33.52925,38.67725],[33.531,38.67625],[33.52775,38.67475],[33.52725,38.66525],[33.532,38.66275],[33.5335,38.6605],[33.53675,38.6605],[33.5385,38.65775],[33.53525,38.6535],[33.538,38.65025],[33.53225,38.64375],[33.53375,38.63825],[33.536,38.63675],[33.53125,38.6315],[33.53225,38.62925],[33.53475,38.6285],[33.5345,38.622],[33.533,38.622],[33.532,38.6275],[33.52675,38.627],[33.5275,38.63025],[33.52525,38.63175],[33.523,38.63075],[33.52275,38.6275],[33.52,38.62675],[33.51875,38.6225],[33.5225,38.613],[33.52725,38.61325],[33.53025,38.61125],[33.529,38.6105],[33.528,38.61175],[33.52525,38.612],[33.523,38.61],[33.52,38.61175],[33.515,38.61075],[33.513,38.60675],[33.51375,38.60325],[33.511,38.60275],[33.51025,38.601],[33.507,38.60175],[33.50475,38.599],[33.5045,38.59575],[33.50675,38.59225],[33.505,38.5915],[33.5045,38.589],[33.5005,38.589],[33.49975,38.5855],[33.49725,38.584],[33.4975,38.58125],[33.4995,38.58],[33.49625,38.567],[33.494,38.56675],[33.49275,38.565],[33.4905,38.56975],[33.48725,38.5715],[33.483,38.56825],[33.48325,38.56475],[33.4895,38.559],[33.49175,38.56025],[33.4955,38.56],[33.49825,38.56325],[33.498,38.566],[33.4995,38.56575],[33.498,38.55925],[33.49875,38.556],[33.501,38.55475],[33.4965,38.5535],[33.4955,38.55075],[33.49225,38.55125],[33.49,38.54825],[33.48475,38.55275],[33.48225,38.5515],[33.4815,38.54875],[33.47975,38.55125],[33.476,38.551],[33.4695,38.554],[33.467,38.55225],[33.46725,38.5475],[33.46375,38.5495],[33.46075,38.5485],[33.46,38.547],[33.45325,38.55025],[33.44875,38.5495],[33.44725,38.55225],[33.43775,38.55575],[33.43575,38.55825],[33.43275,38.55875],[33.432,38.56075],[33.426,38.5615],[33.42925,38.56425],[33.428,38.56775],[33.42425,38.56875],[33.419,38.5665],[33.41575,38.5695],[33.412,38.5695],[33.40875,38.5665],[33.40575,38.567],[33.40275,38.56425],[33.39875,38.57],[33.39475,38.5695],[33.38875,38.57075],[33.38975,38.57675],[33.38775,38.57775],[33.38525,38.577],[33.3845,38.58025],[33.3805,38.581],[33.37775,38.5795],[33.37775,38.57525],[33.38025,38.573],[33.38225,38.573],[33.3845,38.56975],[33.3865,38.56925],[33.38625,38.568],[33.3845,38.5675],[33.37825,38.57025],[33.3745,38.569],[33.37125,38.573],[33.37325,38.57625],[33.3715,38.58025],[33.36775,38.57975],[33.36525,38.58025],[33.364,38.582],[33.3615,38.58175],[33.3615,38.585],[33.35675,38.58725],[33.35425,38.58625],[33.354,38.58325],[33.356,38.58025],[33.36075,38.58125],[33.3605,38.57975],[33.35675,38.57925],[33.3565,38.5765],[33.36225,38.5695],[33.365,38.56975],[33.36575,38.57275],[33.36775,38.57125],[33.366,38.5685],[33.367,38.56625],[33.38125,38.55975],[33.38375,38.56075],[33.38425,38.56325],[33.38525,38.56175],[33.38375,38.55875],[33.385,38.5565],[33.38825,38.5565],[33.38925,38.5595],[33.39125,38.55875],[33.38975,38.556],[33.39275,38.5525],[33.39725,38.5505],[33.40025,38.5525],[33.402,38.552],[33.402,38.54875],[33.40575,38.54725],[33.407,38.54525],[33.41425,38.5455],[33.41625,38.54375],[33.41425,38.543],[33.414,38.54025],[33.41675,38.53775],[33.43925,38.52875],[33.45625,38.5185],[33.459,38.51875],[33.45975,38.52125],[33.466,38.521],[33.4675,38.52325],[33.4665,38.5255],[33.46175,38.52675],[33.46075,38.5295],[33.4565,38.531],[33.459,38.53225],[33.46275,38.52925],[33.46675,38.5315],[33.468,38.52975],[33.47175,38.52925],[33.4735,38.527],[33.47125,38.5265],[33.4685,38.5225],[33.4705,38.52],[33.46925,38.51225],[33.4755,38.50925],[33.476,38.5045],[33.48125,38.50225],[33.4835,38.49725],[33.49825,38.48775],[33.5005,38.4875],[33.5135,38.4745],[33.51675,38.46975],[33.52025,38.444],[33.52275,38.4415],[33.5255,38.4425],[33.526,38.44475],[33.53025,38.4485],[33.53075,38.45175],[33.5335,38.452],[33.537,38.4575],[33.5365,38.46],[33.53425,38.461],[33.53525,38.46525],[33.533,38.468],[33.53675,38.4675],[33.53825,38.46975],[33.53875,38.4755],[33.53625,38.478],[33.53725,38.48525],[33.53625,38.48725],[33.531,38.4905],[33.53375,38.49275],[33.534,38.4975],[33.5355,38.49925],[33.5415,38.49975],[33.548,38.507],[33.56475,38.5145],[33.57825,38.524],[33.58675,38.5325],[33.59025,38.54],[33.59225,38.5405],[33.59375,38.5445],[33.59725,38.54675],[33.60375,38.55825],[33.606,38.5585],[33.6345,38.5835],[33.643,38.59675],[33.6475,38.60925],[33.647,38.62275],[33.6455,38.628],[33.642,38.6315],[33.64275,38.63575],[33.6405,38.641],[33.638,38.6425],[33.63675,38.647],[33.633,38.65],[33.6315,38.65525],[33.6295,38.656],[33.629,38.658],[33.62475,38.65875],[33.6235,38.66175],[33.6205,38.66275],[33.6205,38.66575],[33.61625,38.67375],[33.612,38.67675],[33.60775,38.67775],[33.606,38.682],[33.60625,38.6895],[33.60775,38.69225],[33.61075,38.6935],[33.61475,38.70275],[33.61125,38.70775],[33.61075,38.711],[33.6075,38.71425],[33.6065,38.71775],[33.6075,38.722],[33.6035,38.7305],[33.60375,38.74025],[33.6015,38.749],[33.593,38.75525],[33.583,38.75825],[33.57225,38.76625],[33.56875,38.766],[33.566,38.76925],[33.56325,38.7695],[33.55425,38.77425],[33.54775,38.78325],[33.54775,38.7915],[33.55,38.795],[33.55275,38.81575],[33.55525,38.82125],[33.56675,38.8275],[33.58075,38.82525],[33.59325,38.82075],[33.603,38.8105],[33.60925,38.8075],[33.6155,38.7975],[33.62225,38.79325],[33.626,38.78725],[33.62775,38.78075],[33.64075,38.76825],[33.64425,38.763],[33.6445,38.75575],[33.6365,38.735],[33.637,38.7265],[33.64175,38.72125],[33.6505,38.71675],[33.65475,38.71075],[33.65875,38.7005],[33.65775,38.6925],[33.66775,38.681],[33.66975,38.66875],[33.667,38.662],[33.6615,38.6555],[33.66125,38.6515],[33.65875,38.64825],[33.65775,38.6405],[33.659,38.6295],[33.65625,38.6065],[33.65175,38.594],[33.64275,38.57925],[33.617,38.5545],[33.5985,38.53025],[33.59725,38.523],[33.59875,38.518],[33.59725,38.51525],[33.59275,38.51975],[33.5875,38.5195],[33.58075,38.51575],[33.57525,38.51],[33.57175,38.5],[33.56975,38.49975],[33.569,38.502],[33.56375,38.50575],[33.56025,38.505],[33.55925,38.50225],[33.555,38.50125],[33.55475,38.4985],[33.55625,38.49675],[33.5505,38.4915],[33.5465,38.47975],[33.5475,38.47625],[33.545,38.474],[33.54325,38.465],[33.541,38.46225],[33.5395,38.44975],[33.541,38.44775],[33.542,38.43775],[33.53825,38.43725],[33.53325,38.4315],[33.5335,38.425],[33.543,38.41625],[33.54325,38.41375],[33.54025,38.41625],[33.536,38.41575],[33.5345,38.41425],[33.533,38.41475],[33.53275,38.41575],[33.5355,38.41725],[33.53575,38.42],[33.53425,38.42325],[33.5285,38.428],[33.5255,38.426],[33.5225,38.42575],[33.5195,38.42025],[33.5175,38.42125],[33.51525,38.4205],[33.511,38.42275],[33.5075,38.42175],[33.50625,38.42],[33.50225,38.4215],[33.50025,38.421],[33.49875,38.42725],[33.50125,38.42825],[33.503,38.4315],[33.502,38.4335],[33.49775,38.4345],[33.499,38.44125],[33.50175,38.44275],[33.50225,38.446],[33.49875,38.44775],[33.49725,38.4505],[33.4895,38.45225],[33.489,38.4585],[33.4845,38.46],[33.4835,38.46175],[33.486,38.46225],[33.49325,38.45825],[33.4985,38.4605],[33.50225,38.464],[33.508,38.461],[33.50825,38.45675],[33.51275,38.4565],[33.51375,38.45875],[33.51025,38.462],[33.5105,38.4665],[33.50625,38.471],[33.50375,38.4715],[33.50225,38.47825],[33.49925,38.4795],[33.4935,38.47925],[33.49225,38.477],[33.4885,38.4765],[33.4875,38.4745],[33.48575,38.47775],[33.4835,38.4785],[33.481,38.477],[33.47975,38.47275],[33.478,38.473],[33.474,38.47775],[33.476,38.4805],[33.47575,38.4835],[33.47175,38.48425],[33.4755,38.49],[33.47475,38.4925],[33.47275,38.4935],[33.4735,38.497],[33.471,38.4985],[33.47,38.5015],[33.4665,38.5015],[33.46375,38.4975],[33.46,38.498],[33.4595,38.5005],[33.457,38.50125],[33.45725,38.50525],[33.45275,38.509],[33.453,38.5125],[33.44825,38.514],[33.44625,38.51725],[33.4435,38.517],[33.44275,38.515],[33.44175,38.5165],[33.4395,38.51675],[33.439,38.52125],[33.435,38.52475],[33.4315,38.52675],[33.429,38.52675],[33.42725,38.525],[33.42725,38.52225],[33.4245,38.521],[33.42475,38.52575],[33.42275,38.53],[33.41875,38.531],[33.41675,38.5295],[33.41425,38.5305],[33.41075,38.52875],[33.41225,38.533],[33.411,38.53425],[33.4085,38.53425],[33.4085,38.5365],[33.40625,38.539],[33.397,38.5435],[33.39475,38.5425],[33.39425,38.5395],[33.392,38.54375],[33.38825,38.54375],[33.38925,38.5475],[33.3855,38.551],[33.3825,38.55225],[33.38025,38.55125],[33.37875,38.55425],[33.367,38.561],[33.36425,38.56075],[33.3635,38.55875],[33.359,38.561],[33.36,38.565],[33.358,38.5665],[33.35475,38.5665],[33.357,38.56825],[33.35675,38.571],[33.35375,38.5725],[33.35125,38.5705],[33.35075,38.57225],[33.35325,38.5745],[33.353,38.5775],[33.35125,38.58125],[33.3485,38.5825],[33.34975,38.58825],[33.34875,38.59075],[33.34275,38.5915],[33.3405,38.5905],[33.33825,38.592],[33.33475,38.59225],[33.33,38.58375],[33.3255,38.58175],[33.32375,38.582],[33.3255,38.58525],[33.324,38.589],[33.3175,38.5925],[33.3135,38.59125],[33.3115,38.58625],[33.30925,38.588],[33.312,38.5895],[33.31175,38.593],[33.3185,38.59375],[33.3205,38.59675],[33.31975,38.59925],[33.31125,38.60475],[33.305,38.606],[33.304,38.60775],[33.29825,38.60975],[33.2915,38.60725],[33.28775,38.59725],[33.28425,38.59875],[33.286,38.60925],[33.2845,38.6115],[33.281,38.611],[33.28075,38.6135],[33.28525,38.615],[33.28925,38.62],[33.28375,38.628],[33.27875,38.62775],[33.2765,38.63025],[33.27425,38.6295],[33.27625,38.633],[33.27425,38.63575],[33.27725,38.63625],[33.27825,38.63825],[33.2775,38.64175],[33.27525,38.64275],[33.277,38.64525],[33.27625,38.649],[33.27025,38.652],[33.269,38.657],[33.26525,38.65675],[33.2605,38.6585],[33.25825,38.6575],[33.2575,38.65275],[33.254,38.65225],[33.2515,38.65375],[33.2475,38.65275],[33.24675,38.6555],[33.2495,38.6545],[33.255,38.6575],[33.254,38.66175],[33.2555,38.6645],[33.253,38.66725],[33.25225,38.67125],[33.24925,38.6725],[33.2445,38.67975],[33.242,38.6805],[33.23975,38.67875],[33.23625,38.67925],[33.23975,38.68125],[33.239,38.68625],[33.23775,38.6875],[33.233,38.68825],[33.22925,38.691],[33.2295,38.69725],[33.22625,38.698],[33.2245,38.70175],[33.21925,38.7045],[33.2185,38.70625],[33.215,38.70625],[33.215,38.7105],[33.2115,38.7135],[33.208,38.71325],[33.201,38.72275],[33.19825,38.723],[33.1965,38.721],[33.196,38.7235],[33.19775,38.724],[33.1985,38.726],[33.19525,38.73125],[33.19175,38.73125],[33.19025,38.7285],[33.18875,38.729],[33.18625,38.732],[33.18925,38.73475],[33.18725,38.7405],[33.18525,38.7425],[33.18125,38.7435],[33.181,38.7475],[33.177,38.75025],[33.17725,38.75275],[33.174,38.7565],[33.17125,38.75675],[33.17,38.759],[33.16775,38.7595],[33.1645,38.7575],[33.164,38.7555],[33.16175,38.756],[33.15725,38.75425],[33.15025,38.7545],[33.14775,38.75125],[33.1505,38.7475],[33.14875,38.74575],[33.13475,38.74575],[33.1325,38.745],[33.1315,38.743],[33.13325,38.73975],[33.1435,38.739],[33.147,38.73725],[33.14775,38.73475],[33.15125,38.73375],[33.1525,38.722],[33.1575,38.7205],[33.1605,38.72225],[33.1605,38.71975],[33.1635,38.7155],[33.163,38.711],[33.15475,38.7125],[33.151,38.71125],[33.15,38.70925],[33.15275,38.70275],[33.15225,38.69825],[33.1545,38.696],[33.1585,38.69675],[33.1595,38.695],[33.16375,38.69325],[33.1615,38.692],[33.16125,38.689],[33.166,38.687],[33.167,38.68225],[33.161,38.68125],[33.1565,38.683],[33.15325,38.68125],[33.15075,38.67625],[33.15275,38.67375],[33.1565,38.674],[33.15775,38.67275],[33.1555,38.67075],[33.15225,38.6715],[33.1515,38.67325],[33.14775,38.67425],[33.1425,38.67875],[33.14025,38.67925],[33.14125,38.68175],[33.139,38.6845],[33.13925,38.688],[33.14375,38.69325],[33.143,38.6965],[33.13925,38.6965],[33.1355,38.69275],[33.13275,38.696],[33.12875,38.697],[33.12575,38.70025],[33.128,38.70375],[33.13075,38.705],[33.131,38.70775],[33.12675,38.71025],[33.123,38.715],[33.11975,38.7235],[33.11625,38.72625],[33.11625,38.73075],[33.11225,38.73225],[33.1165,38.7335],[33.116,38.7375],[33.1115,38.74025],[33.0995,38.7395],[33.0965,38.743],[33.09925,38.744],[33.1015,38.742],[33.10375,38.742],[33.10925,38.74675],[33.119,38.74925],[33.12075,38.751],[33.12025,38.754],[33.1235,38.7555],[33.1225,38.759],[33.13025,38.7625],[33.135,38.7675],[33.1335,38.77],[33.129,38.7715],[33.125,38.77],[33.12275,38.772],[33.124,38.778],[33.122,38.7815],[33.12375,38.78275],[33.124,38.787],[33.1185,38.79225],[33.1075,38.79425],[33.1085,38.79825],[33.1105,38.79975],[33.115,38.7995],[33.121,38.80325],[33.12725,38.80225],[33.13,38.803],[33.13075,38.8055],[33.13325,38.80725],[33.133,38.81],[33.129,38.81125],[33.12675,38.80875],[33.12475,38.80925],[33.12825,38.8125],[33.128,38.818],[33.12925,38.81525],[33.1315,38.81425],[33.13475,38.81625],[33.13325,38.82],[33.13475,38.822],[33.1375,38.82175],[33.1395,38.8235],[33.1445,38.8215],[33.14775,38.82225],[33.149,38.829],[33.15575,38.83125],[33.1565,38.83425],[33.1595,38.836],[33.162,38.83975],[33.1605,38.8445],[33.16325,38.846],[33.16275,38.85325],[33.1615,38.8545],[33.15475,38.85575],[33.15875,38.8575],[33.16025,38.85575],[33.16325,38.856],[33.1655,38.8585],[33.1655,38.8615],[33.1635,38.86325],[33.16125,38.86325],[33.15925,38.85975],[33.15775,38.8625],[33.15225,38.86225],[33.15025,38.865],[33.1475,38.86525],[33.14675,38.86725],[33.14825,38.86925],[33.1485,38.86725],[33.15225,38.86625],[33.1535,38.86375],[33.15725,38.86425],[33.157,38.8685],[33.15425,38.86975],[33.15575,38.87575],[33.1535,38.87725],[33.1515,38.87675],[33.15075,38.873],[33.148,38.8705],[33.146,38.87325],[33.1425,38.8735],[33.1445,38.8765],[33.14375,38.879],[33.1465,38.88075],[33.151,38.88075],[33.153,38.8825],[33.15675,38.8825],[33.157,38.88],[33.15975,38.87875],[33.15925,38.876],[33.16075,38.874],[33.1585,38.8725],[33.1585,38.86875],[33.16475,38.86625],[33.16725,38.8625],[33.17,38.86225],[33.1715,38.86475],[33.169,38.87025],[33.17275,38.86825],[33.17625,38.8695],[33.17525,38.8745],[33.1775,38.879],[33.18075,38.88025],[33.18075,38.88275],[33.1785,38.88475],[33.181,38.8895],[33.176,38.89425],[33.172,38.8945],[33.16875,38.88925],[33.16625,38.88825],[33.16525,38.8845],[33.16325,38.885],[33.16075,38.88825],[33.165,38.89625],[33.16775,38.89525],[33.17025,38.8965],[33.17475,38.89525],[33.1785,38.89625],[33.184,38.89325],[33.18725,38.89475],[33.19025,38.89375],[33.19975,38.89475],[33.197,38.892],[33.197,38.88525],[33.19475,38.88725],[33.18925,38.8875],[33.188,38.884],[33.185,38.882],[33.191,38.86375],[33.18275,38.858],[33.18025,38.8505],[33.178,38.84925],[33.17775,38.84425],[33.17375,38.848],[33.1705,38.848],[33.168,38.84025],[33.16375,38.83575],[33.1635,38.8285],[33.16025,38.82275],[33.162,38.81825],[33.16425,38.81725],[33.163,38.81175],[33.16625,38.81],[33.16975,38.8115],[33.17,38.815],[33.17225,38.81625],[33.171,38.82025],[33.1765,38.822],[33.17925,38.8275],[33.186,38.83075],[33.18775,38.833],[33.18875,38.83625],[33.18725,38.8385],[33.19075,38.83925],[33.19025,38.84325],[33.197,38.84875],[33.197,38.85175],[33.2,38.8535],[33.20025,38.85675],[33.198,38.858],[33.2,38.85975],[33.2,38.86225],[33.20475,38.86225],[33.20775,38.86625],[33.2075,38.869],[33.205,38.87025],[33.2085,38.8715],[33.20775,38.8755],[33.214,38.87625],[33.21825,38.88075],[33.21925,38.88575],[33.2225,38.8865],[33.2225,38.88975],[33.219,38.89075],[33.22475,38.89275],[33.22775,38.8975],[33.22775,38.9],[33.23025,38.90025],[33.2315,38.902],[33.23175,38.9055],[33.23425,38.9095],[33.2325,38.91225],[33.2335,38.91525],[33.23625,38.914],[33.2375,38.911],[33.24,38.91075],[33.24075,38.908],[33.24375,38.908],[33.24525,38.90525],[33.2475,38.90425],[33.251,38.90575],[33.25125,38.9085],[33.26025,38.907],[33.26225,38.908],[33.26275,38.91],[33.2695,38.91],[33.2725,38.91225],[33.2765,38.91225],[33.2815,38.915],[33.2855,38.915],[33.28825,38.91775],[33.29075,38.9165],[33.29825,38.91875],[33.30125,38.91825],[33.3085,38.9215],[33.31225,38.924],[33.313,38.9285],[33.316,38.93225],[33.31925,38.9335],[33.3215,38.9375],[33.3265,38.93775],[33.3345,38.94875],[33.3375,38.9505],[33.338,38.95375],[33.34825,38.96725],[33.3475,38.97125],[33.35425,38.9735],[33.3555,38.9785],[33.3535,38.9835],[33.34975,38.98325],[33.34825,38.98075],[33.3495,38.97725],[33.34475,38.976],[33.3415,38.985],[33.34525,38.98575],[33.346,38.99],[33.34825,38.9895],[33.35075,38.98675],[33.353,38.98675],[33.3555,38.9895],[33.3555,38.99225],[33.3575,38.993],[33.357,39.0005],[33.352,39.002],[33.35325,39.00425],[33.3525,39.0065],[33.355,39.008],[33.35475,39.011],[33.35075,39.0115],[33.3465,39.00475],[33.3425,39.0055],[33.3415,39.01275],[33.339,39.01425],[33.33725,39.01925],[33.33875,39.021],[33.3385,39.024],[33.33325,39.02575],[33.33225,39.028],[33.33025,39.0285],[33.32975,39.03225],[33.32675,39.033],[33.325,39.03525],[33.322,39.03525],[33.32225,39.0405],[33.3185,39.04125],[33.31975,39.04375],[33.31825,39.04625],[33.32,39.04725],[33.32075,39.05075],[33.31575,39.067],[33.3195,39.067],[33.322,39.06925],[33.32225,39.07325],[33.31975,39.076],[33.3265,39.0775],[33.32725,39.08475],[33.32925,39.086],[33.3295,39.08975],[33.326,39.09925],[33.32225,39.10125],[33.32125,39.1035],[33.31875,39.10375],[33.3165,39.10575],[33.3105,39.1035],[33.3075,39.10575],[33.3035,39.10675],[33.3015,39.106],[33.3005,39.10825],[33.2985,39.10875],[33.305,39.112],[33.3135,39.112],[33.3135,39.10925],[33.3155,39.10675],[33.3175,39.10625],[33.31975,39.10775],[33.3195,39.1105],[33.3175,39.113],[33.315,39.11325],[33.3125,39.119],[33.3035,39.125],[33.3075,39.129],[33.319,39.13]]],[[[33.42425,38.55225],[33.42625,38.55125],[33.42625,38.548],[33.42875,38.547],[33.43075,38.544],[33.43725,38.54475],[33.43925,38.54325],[33.4425,38.54375],[33.448,38.54],[33.45375,38.541],[33.4555,38.5385],[33.454,38.532],[33.4525,38.5315],[33.4525,38.53375],[33.44975,38.537],[33.4415,38.538],[33.441,38.54],[33.438,38.542],[33.43525,38.54175],[33.435,38.53775],[33.433,38.53775],[33.43375,38.54],[33.43175,38.543],[33.428,38.542],[33.42575,38.5435],[33.42275,38.54275],[33.42225,38.54475],[33.42,38.54575],[33.42,38.54975],[33.42425,38.55225]]],[[[33.08825,38.751],[33.09425,38.74425],[33.09075,38.74125],[33.08575,38.74175],[33.07825,38.746],[33.07675,38.74825],[33.07725,38.75125],[33.08825,38.751]]],[[[33.174,38.91125],[33.176,38.90725],[33.178,38.9065],[33.178,38.90125],[33.176,38.9035],[33.171,38.90525],[33.16875,38.9035],[33.165,38.90325],[33.164,38.899],[33.161,38.8985],[33.1635,38.90225],[33.162,38.90525],[33.16575,38.906],[33.167,38.91],[33.174,38.91125]]],[[[33.23775,38.6715],[33.23825,38.669],[33.24125,38.66725],[33.239,38.66325],[33.23675,38.66225],[33.2305,38.664],[33.227,38.6625],[33.231,38.6655],[33.231,38.669],[33.23775,38.6715]]],[[[33.358,38.5495],[33.35975,38.54625],[33.37,38.5445],[33.37125,38.5425],[33.37675,38.542],[33.377,38.53975],[33.3795,38.539],[33.37975,38.5365],[33.376,38.53725],[33.37575,38.54],[33.37375,38.541],[33.3705,38.53825],[33.3675,38.538],[33.36725,38.5435],[33.36525,38.5445],[33.362,38.5435],[33.361,38.545],[33.35675,38.54625],[33.358,38.5495]]],[[[33.09675,38.80325],[33.0975,38.7965],[33.09325,38.795],[33.088,38.7975],[33.08775,38.801],[33.09675,38.80325]]],[[[33.11825,38.81475],[33.12125,38.80975],[33.1145,38.8075],[33.11325,38.81025],[33.10875,38.80975],[33.10625,38.81075],[33.11075,38.8145],[33.113,38.81075],[33.11575,38.8105],[33.117,38.8145],[33.11825,38.81475]]],[[[33.3515,38.569],[33.35275,38.56675],[33.35075,38.5645],[33.351,38.5615],[33.34325,38.56125],[33.343,38.56375],[33.34575,38.56475],[33.3465,38.56825],[33.349,38.567],[33.3515,38.569]]],[[[33.39475,38.529],[33.396,38.5275],[33.39975,38.52675],[33.40075,38.5245],[33.4045,38.524],[33.40525,38.521],[33.4025,38.52075],[33.3995,38.525],[33.38875,38.5255],[33.39125,38.5285],[33.39475,38.529]]],[[[33.516,38.5905],[33.51625,38.587],[33.512,38.58425],[33.5085,38.586],[33.51,38.5895],[33.516,38.5905]]],[[[33.15775,38.8495],[33.15725,38.8465],[33.159,38.84475],[33.153,38.8445],[33.14825,38.8465],[33.15125,38.84825],[33.15575,38.8475],[33.15775,38.8495]]],[[[33.515,38.6005],[33.518,38.6],[33.51725,38.59525],[33.5145,38.597],[33.51225,38.5955],[33.50975,38.5965],[33.5105,38.599],[33.51275,38.598],[33.515,38.6005]]],[[[33.495,38.506],[33.49875,38.5055],[33.498,38.50225],[33.49475,38.5025],[33.491,38.499],[33.48975,38.49925],[33.488,38.50325],[33.492,38.5015],[33.49475,38.503],[33.495,38.506]]],[[[33.14625,38.83925],[33.14875,38.83725],[33.142,38.8335],[33.142,38.83575],[33.14,38.8375],[33.14625,38.83925]]],[[[33.16575,38.882],[33.16875,38.87525],[33.1645,38.8725],[33.162,38.87375],[33.1665,38.8755],[33.16625,38.87825],[33.16425,38.8795],[33.16575,38.882]]],[[[33.3025,39.12475],[33.301,39.1225],[33.302,39.11975],[33.301,39.11875],[33.29825,39.119],[33.29775,39.1235],[33.3025,39.12475]]],[[[33.1465,38.85925],[33.151,38.85875],[33.15225,38.85725],[33.15025,38.85625],[33.15,38.8535],[33.14825,38.85575],[33.146,38.856],[33.1465,38.85925]]],[[[33.151,38.66625],[33.15375,38.664],[33.1535,38.66275],[33.14975,38.6625],[33.1475,38.665],[33.151,38.66625]]],[[[33.13125,38.683],[33.13375,38.68225],[33.134,38.6785],[33.12925,38.68],[33.13125,38.683]]],[[[33.10775,38.71575],[33.10525,38.708],[33.10325,38.7085],[33.103,38.7115],[33.10575,38.71275],[33.10775,38.71575]]],[[[33.19025,38.90375],[33.1935,38.89975],[33.189,38.9],[33.18825,38.9035],[33.19025,38.90375]]],[[[33.556,38.70225],[33.559,38.69975],[33.5565,38.698],[33.5545,38.69925],[33.556,38.70225]]],[[[33.52775,38.62075],[33.531,38.62075],[33.53225,38.61725],[33.52925,38.6185],[33.52775,38.62075]]],[[[33.1645,38.67525],[33.1635,38.672],[33.16025,38.6725],[33.1645,38.67525]]],[[[33.3005,38.60075],[33.3,38.598],[33.29625,38.59875],[33.3005,38.60075]]],[[[33.22025,38.9135],[33.22225,38.90975],[33.22025,38.90975],[33.22025,38.9135]]],[[[33.30675,38.597],[33.31,38.5945],[33.307,38.5945],[33.30675,38.597]]],[[[33.2685,38.91875],[33.27225,38.91725],[33.269,38.91675],[33.2685,38.91875]]],[[[33.094,38.731],[33.09675,38.7285],[33.09675,38.72675],[33.094,38.731]]],[[[33.5025,38.5825],[33.50425,38.579],[33.502,38.58075],[33.5025,38.5825]]],[[[33.38075,38.5355],[33.38275,38.5355],[33.3835,38.53325],[33.38075,38.5355]]],[[[33.11125,38.8175],[33.1105,38.815],[33.1095,38.81725],[33.11125,38.8175]]],[[[33.28025,38.61],[33.2805,38.61],[33.2805,38.60925],[33.28025,38.60925],[33.28025,38.608],[33.28,38.608],[33.28,38.60775],[33.27975,38.60775],[33.27975,38.60725],[33.2795,38.60725],[33.2795,38.60675],[33.27925,38.60675],[33.27925,38.607],[33.279,38.607],[33.279,38.60725],[33.27925,38.60725],[33.27925,38.60825],[33.2795,38.60825],[33.2795,38.6095],[33.28,38.6095],[33.28,38.60975],[33.28025,38.60975],[33.28025,38.61]]],[[[33.47725,38.52225],[33.4765,38.51975],[33.4755,38.5215],[33.47725,38.52225]]],[[[33.22425,38.683],[33.225,38.683],[33.225,38.6825],[33.22525,38.6825],[33.22525,38.68225],[33.225,38.68225],[33.225,38.68025],[33.22525,38.68025],[33.22525,38.68],[33.2245,38.68],[33.2245,38.67975],[33.224,38.67975],[33.224,38.68],[33.22425,38.68],[33.22425,38.6805],[33.2245,38.6805],[33.2245,38.6815],[33.22475,38.6815],[33.22475,38.68175],[33.2245,38.68175],[33.2245,38.68275],[33.22425,38.68275],[33.22425,38.683]]],[[[33.39775,38.5575],[33.39825,38.5575],[33.39825,38.557],[33.3985,38.557],[33.3985,38.55675],[33.39875,38.55675],[33.39875,38.5565],[33.399,38.5565],[33.399,38.55625],[33.3995,38.55625],[33.3995,38.556],[33.4,38.556],[33.4,38.55575],[33.39975,38.55575],[33.39975,38.55525],[33.3995,38.55525],[33.3995,38.5555],[33.399,38.5555],[33.399,38.556],[33.39875,38.556],[33.39875,38.55625],[33.3985,38.55625],[33.3985,38.5565],[33.398,38.5565],[33.398,38.55675],[33.3975,38.55675],[33.3975,38.55725],[33.39775,38.55725],[33.39775,38.5575]]],[[[33.27875,38.59775],[33.28,38.597],[33.27725,38.5965],[33.27875,38.59775]]],[[[33.303,38.603],[33.3035,38.603],[33.3035,38.60275],[33.30325,38.60275],[33.30325,38.60225],[33.30225,38.60225],[33.30225,38.602],[33.30175,38.602],[33.30175,38.60175],[33.3015,38.60175],[33.3015,38.6015],[33.30125,38.6015],[33.30125,38.60125],[33.301,38.60125],[33.301,38.601],[33.30075,38.601],[33.30075,38.6015],[33.301,38.6015],[33.301,38.60175],[33.30125,38.60175],[33.30125,38.602],[33.3015,38.602],[33.3015,38.60225],[33.302,38.60225],[33.302,38.6025],[33.3025,38.6025],[33.3025,38.60275],[33.303,38.60275],[33.303,38.603]]],[[[33.468,38.546],[33.469,38.545],[33.46725,38.5445],[33.468,38.546]]],[[[33.158,38.705],[33.15825,38.705],[33.15825,38.7045],[33.15775,38.7045],[33.15775,38.70425],[33.15725,38.70425],[33.15725,38.704],[33.157,38.704],[33.157,38.70375],[33.1565,38.70375],[33.1565,38.704],[33.156,38.704],[33.156,38.7045],[33.15625,38.7045],[33.15625,38.70425],[33.1565,38.70425],[33.1565,38.7045],[33.1575,38.7045],[33.1575,38.70475],[33.158,38.70475],[33.158,38.705]]],[[[33.53375,38.677],[33.53475,38.676],[33.53225,38.6765],[33.53375,38.677]]],[[[33.478,38.524],[33.479,38.523],[33.4775,38.5225],[33.478,38.524]]],[[[33.48725,38.5085],[33.4875,38.5085],[33.4875,38.50875],[33.48825,38.50875],[33.48825,38.5085],[33.488,38.5085],[33.488,38.5075],[33.48775,38.5075],[33.48775,38.507],[33.4875,38.507],[33.4875,38.508],[33.48725,38.508],[33.48725,38.5085]]],[[[33.3875,38.56225],[33.389,38.562],[33.38875,38.561],[33.3875,38.56225]]],[[[33.4855,38.51625],[33.48575,38.51625],[33.48575,38.51575],[33.486,38.51575],[33.486,38.5155],[33.48625,38.5155],[33.48625,38.515],[33.48525,38.515],[33.48525,38.5155],[33.4855,38.5155],[33.4855,38.51625]]],[[[33.249,38.66375],[33.24925,38.66375],[33.24925,38.6635],[33.24975,38.6635],[33.24975,38.66375],[33.25,38.66375],[33.25,38.66325],[33.25025,38.66325],[33.25025,38.66275],[33.25,38.66275],[33.25,38.663],[33.2495,38.663],[33.2495,38.66325],[33.249,38.66325],[33.249,38.66375]]],[[[33.12175,38.8095],[33.12325,38.809],[33.12225,38.8085],[33.12175,38.8095]]],[[[33.11175,38.77975],[33.1125,38.77975],[33.1125,38.7795],[33.11275,38.7795],[33.11275,38.77875],[33.1125,38.77875],[33.1125,38.779],[33.11225,38.779],[33.11225,38.77925],[33.11175,38.77925],[33.11175,38.77975]]],[[[33.17575,38.719],[33.17575,38.71775],[33.17475,38.71875],[33.17575,38.719]]],[[[33.35825,38.55125],[33.3585,38.55125],[33.3585,38.54975],[33.358,38.54975],[33.358,38.55075],[33.35825,38.55075],[33.35825,38.55125]]],[[[33.38375,38.533],[33.384,38.533],[33.384,38.53275],[33.38425,38.53275],[33.38425,38.5325],[33.3845,38.5325],[33.3845,38.53225],[33.385,38.53225],[33.385,38.53175],[33.3845,38.53175],[33.3845,38.532],[33.38425,38.532],[33.38425,38.53225],[33.384,38.53225],[33.384,38.5325],[33.38375,38.5325],[33.38375,38.533]]],[[[33.4145,38.5165],[33.415,38.5165],[33.415,38.51625],[33.41525,38.51625],[33.41525,38.516],[33.4155,38.516],[33.4155,38.51575],[33.41575,38.51575],[33.41575,38.51525],[33.41525,38.51525],[33.41525,38.51575],[33.415,38.51575],[33.415,38.516],[33.41475,38.516],[33.41475,38.51625],[33.4145,38.51625],[33.4145,38.5165]]],[[[33.212,38.902],[33.212,38.9015],[33.21175,38.9015],[33.21175,38.901],[33.2115,38.901],[33.2115,38.9005],[33.21125,38.9005],[33.21125,38.9015],[33.2115,38.9015],[33.2115,38.90175],[33.21175,38.90175],[33.21175,38.902],[33.212,38.902]]],[[[33.17,38.67725],[33.17075,38.67725],[33.17075,38.67675],[33.17,38.67675],[33.17,38.6765],[33.16975,38.6765],[33.16975,38.67675],[33.1695,38.67675],[33.1695,38.677],[33.17,38.677],[33.17,38.67725]]],[[[33.4815,38.54625],[33.48175,38.54625],[33.48175,38.546],[33.482,38.546],[33.482,38.54575],[33.48225,38.54575],[33.48225,38.5455],[33.4825,38.5455],[33.4825,38.54525],[33.482,38.54525],[33.482,38.5455],[33.48125,38.5455],[33.48125,38.54575],[33.4815,38.54575],[33.4815,38.54625]]],[[[33.14175,38.86775],[33.14275,38.86775],[33.14275,38.8675],[33.1425,38.8675],[33.1425,38.86725],[33.1415,38.86725],[33.1415,38.8675],[33.14175,38.8675],[33.14175,38.86775]]],[[[33.142,38.8335],[33.142,38.8325],[33.14175,38.8325],[33.14175,38.83225],[33.1415,38.83225],[33.1415,38.8325],[33.14125,38.8325],[33.14125,38.83275],[33.1415,38.83275],[33.1415,38.833],[33.14175,38.833],[33.14175,38.8335],[33.142,38.8335]]],[[[33.1185,38.771],[33.1195,38.771],[33.1195,38.7705],[33.1185,38.7705],[33.1185,38.771]]],[[[33.10675,38.76175],[33.10875,38.76175],[33.10875,38.7615],[33.10675,38.7615],[33.10675,38.76175]]],[[[33.15675,38.6675],[33.15725,38.6675],[33.15725,38.6665],[33.15675,38.6665],[33.15675,38.6675]]],[[[33.21225,38.903],[33.21275,38.903],[33.21275,38.9025],[33.2125,38.9025],[33.2125,38.90225],[33.21225,38.90225],[33.21225,38.902],[33.212,38.902],[33.212,38.9025],[33.21225,38.9025],[33.21225,38.903]]],[[[33.52525,38.60025],[33.5255,38.60025],[33.5255,38.59925],[33.52475,38.59925],[33.52475,38.5995],[33.525,38.5995],[33.525,38.59975],[33.52525,38.59975],[33.52525,38.60025]]],[[[33.12475,38.76825],[33.125,38.76825],[33.125,38.76775],[33.12525,38.76775],[33.12525,38.7675],[33.125,38.7675],[33.125,38.76725],[33.1245,38.76725],[33.1245,38.76775],[33.12475,38.76775],[33.12475,38.76825]]],[[[33.162,38.75],[33.16275,38.75],[33.16275,38.74975],[33.1625,38.74975],[33.1625,38.7495],[33.16275,38.7495],[33.16275,38.74925],[33.162,38.74925],[33.162,38.7495],[33.16225,38.7495],[33.16225,38.74975],[33.162,38.74975],[33.162,38.75]]],[[[33.506,38.50175],[33.50625,38.50175],[33.50625,38.5015],[33.5065,38.5015],[33.5065,38.50125],[33.507,38.50125],[33.507,38.501],[33.506,38.501],[33.506,38.50175]]],[[[33.21825,38.9035],[33.21875,38.9035],[33.21875,38.90325],[33.2185,38.90325],[33.2185,38.903],[33.21825,38.903],[33.21825,38.90275],[33.218,38.90275],[33.218,38.9025],[33.21775,38.9025],[33.21775,38.903],[33.218,38.903],[33.218,38.90325],[33.21825,38.90325],[33.21825,38.9035]]],[[[33.4885,38.4345],[33.48875,38.4345],[33.48875,38.43425],[33.489,38.43425],[33.489,38.434],[33.48875,38.434],[33.48875,38.43375],[33.4885,38.43375],[33.4885,38.434],[33.488,38.434],[33.488,38.43425],[33.4885,38.43425],[33.4885,38.4345]]],[[[33.4485,38.95875],[33.44925,38.95875],[33.44925,38.95825],[33.4485,38.95825],[33.4485,38.95875]]],[[[33.21825,38.68375],[33.21875,38.68375],[33.21875,38.68325],[33.219,38.68325],[33.219,38.68275],[33.21875,38.68275],[33.21875,38.683],[33.2185,38.683],[33.2185,38.6835],[33.21825,38.6835],[33.21825,38.68375]]],[[[33.5315,38.7495],[33.532,38.7495],[33.532,38.74925],[33.5325,38.74925],[33.5325,38.749],[33.53175,38.749],[33.53175,38.74925],[33.5315,38.74925],[33.5315,38.7495]]],[[[33.424,38.8775],[33.42425,38.8775],[33.42425,38.87725],[33.42475,38.87725],[33.42475,38.877],[33.42425,38.877],[33.42425,38.87675],[33.424,38.87675],[33.424,38.8775]]],[[[33.14525,38.84675],[33.146,38.84675],[33.146,38.8465],[33.1455,38.8465],[33.1455,38.84625],[33.14525,38.84625],[33.14525,38.84675]]],[[[33.41675,38.5505],[33.41725,38.5505],[33.41725,38.55],[33.41675,38.55],[33.41675,38.5505]]],[[[33.321,39.13875],[33.32175,39.13875],[33.32175,39.13825],[33.3215,39.13825],[33.3215,39.1385],[33.321,39.1385],[33.321,39.13875]]],[[[33.3035,39.125],[33.3035,39.12475],[33.3025,39.12475],[33.3025,39.125],[33.3035,39.125]]],[[[33.42475,38.877],[33.42575,38.877],[33.42575,38.87675],[33.42475,38.87675],[33.42475,38.877]]],[[[33.13,38.68725],[33.13025,38.68725],[33.13025,38.687],[33.1305,38.687],[33.1305,38.6865],[33.13025,38.6865],[33.13025,38.68675],[33.13,38.68675],[33.13,38.68725]]],[[[33.51725,38.59525],[33.5175,38.59525],[33.5175,38.59475],[33.51775,38.59475],[33.51775,38.5945],[33.51725,38.5945],[33.51725,38.59525]]],[[[33.38975,38.5335],[33.39075,38.5335],[33.39075,38.53325],[33.38975,38.53325],[33.38975,38.5335]]],[[[33.4275,38.5125],[33.428,38.5125],[33.428,38.512],[33.4275,38.512],[33.4275,38.5125]]],[[[33.28075,38.91975],[33.28075,38.91925],[33.28025,38.91925],[33.28025,38.9195],[33.2805,38.9195],[33.2805,38.91975],[33.28075,38.91975]]],[[[33.1055,38.762],[33.10625,38.762],[33.10625,38.76175],[33.1055,38.76175],[33.1055,38.762]]],[[[33.17225,38.70525],[33.173,38.70525],[33.173,38.705],[33.17225,38.705],[33.17225,38.70525]]],[[[33.15925,38.6725],[33.16,38.6725],[33.16,38.67225],[33.15925,38.67225],[33.15925,38.6725]]],[[[33.3405,38.565],[33.34125,38.565],[33.34125,38.56475],[33.3405,38.56475],[33.3405,38.565]]],[[[33.48975,38.51025],[33.49,38.51025],[33.49,38.50975],[33.4895,38.50975],[33.4895,38.51],[33.48975,38.51],[33.48975,38.51025]]],[[[33.49925,38.41775],[33.5,38.41775],[33.5,38.4175],[33.49925,38.4175],[33.49925,38.41775]]],[[[33.14275,38.8675],[33.1435,38.8675],[33.1435,38.86725],[33.14275,38.86725],[33.14275,38.8675]]],[[[33.1595,38.84475],[33.16,38.84475],[33.16,38.8445],[33.1595,38.8445],[33.1595,38.84475]]],[[[33.5305,38.75025],[33.531,38.75025],[33.531,38.75],[33.5305,38.75],[33.5305,38.75025]]],[[[33.1675,38.696],[33.168,38.696],[33.168,38.69575],[33.1675,38.69575],[33.1675,38.696]]],[[[33.5075,38.586],[33.508,38.586],[33.508,38.58575],[33.5075,38.58575],[33.5075,38.586]]],[[[33.394,38.5625],[33.39425,38.5625],[33.39425,38.562],[33.394,38.562],[33.394,38.5625]]],[[[33.44575,39.0245],[33.44625,39.0245],[33.44625,39.02425],[33.44575,39.02425],[33.44575,39.0245]]],[[[33.28075,38.92025],[33.281,38.92025],[33.281,38.91975],[33.28075,38.91975],[33.28075,38.92025]]],[[[33.2745,38.918],[33.2745,38.91775],[33.274,38.91775],[33.274,38.918],[33.2745,38.918]]],[[[33.21725,38.90725],[33.21775,38.90725],[33.21775,38.907],[33.21725,38.907],[33.21725,38.90725]]],[[[33.1655,38.8825],[33.166,38.8825],[33.166,38.88225],[33.1655,38.88225],[33.1655,38.8825]]],[[[33.18975,38.8435],[33.19025,38.8435],[33.19025,38.84325],[33.18975,38.84325],[33.18975,38.8435]]],[[[33.1775,38.839],[33.178,38.839],[33.178,38.83875],[33.1775,38.83875],[33.1775,38.839]]],[[[33.16625,38.818],[33.1665,38.818],[33.1665,38.8175],[33.16625,38.8175],[33.16625,38.818]]],[[[33.52725,38.74275],[33.52775,38.74275],[33.52775,38.7425],[33.52725,38.7425],[33.52725,38.74275]]],[[[33.11175,38.73275],[33.11225,38.73275],[33.11225,38.7325],[33.11175,38.7325],[33.11175,38.73275]]],[[[33.55575,38.70275],[33.556,38.70275],[33.556,38.70225],[33.55575,38.70225],[33.55575,38.70275]]],[[[33.55175,38.69925],[33.55225,38.69925],[33.55225,38.699],[33.55175,38.699],[33.55175,38.69925]]],[[[33.27425,38.64275],[33.27475,38.64275],[33.27475,38.6425],[33.27425,38.6425],[33.27425,38.64275]]],[[[33.518,38.60025],[33.5185,38.60025],[33.5185,38.6],[33.518,38.6],[33.518,38.60025]]],[[[33.292,38.5975],[33.2925,38.5975],[33.2925,38.59725],[33.292,38.59725],[33.292,38.5975]]],[[[33.28175,38.5965],[33.282,38.5965],[33.282,38.596],[33.28175,38.596],[33.28175,38.5965]]],[[[33.359,38.561],[33.359,38.56075],[33.3585,38.56075],[33.3585,38.561],[33.359,38.561]]],[[[33.38875,38.561],[33.389,38.561],[33.389,38.5605],[33.38875,38.5605],[33.38875,38.561]]],[[[33.35525,38.56],[33.3555,38.56],[33.3555,38.5595],[33.35525,38.5595],[33.35525,38.56]]],[[[33.389,38.56],[33.38925,38.56],[33.38925,38.5595],[33.389,38.5595],[33.389,38.56]]],[[[33.46725,38.5475],[33.4675,38.5475],[33.4675,38.547],[33.46725,38.547],[33.46725,38.5475]]],[[[33.469,38.545],[33.4695,38.545],[33.4695,38.54475],[33.469,38.54475],[33.469,38.545]]],[[[33.4835,38.545],[33.484,38.545],[33.484,38.54475],[33.4835,38.54475],[33.4835,38.545]]],[[[33.48725,38.544],[33.4875,38.544],[33.4875,38.5435],[33.48725,38.5435],[33.48725,38.544]]],[[[33.40525,38.521],[33.40575,38.521],[33.40575,38.52075],[33.40525,38.52075],[33.40525,38.521]]],[[[33.4875,38.50675],[33.488,38.50675],[33.488,38.5065],[33.4875,38.5065],[33.4875,38.50675]]],[[[33.45225,38.499],[33.45275,38.499],[33.45275,38.49875],[33.45225,38.49875],[33.45225,38.499]]],[[[33.5045,38.4985],[33.50475,38.4985],[33.50475,38.498],[33.5045,38.498],[33.5045,38.4985]]],[[[33.453,38.491],[33.4535,38.491],[33.4535,38.49075],[33.453,38.49075],[33.453,38.491]]],[[[33.5145,38.49],[33.515,38.49],[33.515,38.48975],[33.5145,38.48975],[33.5145,38.49]]],[[[33.49375,38.4735],[33.49425,38.4735],[33.49425,38.47325],[33.49375,38.47325],[33.49375,38.4735]]],[[[33.3505,39.00175],[33.351,39.00175],[33.351,39.0015],[33.3505,39.0015],[33.3505,39.00175]]],[[[33.1455,38.862],[33.146,38.862],[33.146,38.86175],[33.1455,38.86175],[33.1455,38.862]]],[[[33.12125,38.80975],[33.12175,38.80975],[33.12175,38.8095],[33.12125,38.8095],[33.12125,38.80975]]],[[[33.1145,38.71175],[33.115,38.71175],[33.115,38.7115],[33.1145,38.7115],[33.1145,38.71175]]],[[[33.16675,38.677],[33.16725,38.677],[33.16725,38.67675],[33.16675,38.67675],[33.16675,38.677]]],[[[33.1645,38.6755],[33.165,38.6755],[33.165,38.67525],[33.1645,38.67525],[33.1645,38.6755]]],[[[33.53475,38.66975],[33.53525,38.66975],[33.53525,38.6695],[33.53475,38.6695],[33.53475,38.66975]]],[[[33.5305,38.61175],[33.531,38.61175],[33.531,38.6115],[33.5305,38.6115],[33.5305,38.61175]]],[[[33.393,38.55925],[33.3935,38.55925],[33.3935,38.559],[33.393,38.559],[33.393,38.55925]]],[[[33.4675,38.5465],[33.46775,38.5465],[33.46775,38.546],[33.4675,38.546],[33.4675,38.5465]]],[[[33.40575,38.52075],[33.40625,38.52075],[33.40625,38.5205],[33.40575,38.5205],[33.40575,38.52075]]],[[[33.5125,38.494],[33.513,38.494],[33.513,38.49375],[33.5125,38.49375],[33.5125,38.494]]],[[[33.5035,38.49175],[33.50375,38.49175],[33.50375,38.49125],[33.5035,38.49125],[33.5035,38.49175]]],[[[33.4965,38.4735],[33.49675,38.4735],[33.49675,38.473],[33.4965,38.473],[33.4965,38.4735]]],[[[33.44675,39.02425],[33.447,39.02425],[33.447,39.024],[33.44675,39.024],[33.44675,39.02425]]],[[[33.22625,38.90375],[33.2265,38.90375],[33.2265,38.9035],[33.22625,38.9035],[33.22625,38.90375]]],[[[33.148,38.87025],[33.14825,38.87025],[33.14825,38.87],[33.148,38.87],[33.148,38.87025]]],[[[33.164,38.7555],[33.16425,38.7555],[33.16425,38.75525],[33.164,38.75525],[33.164,38.7555]]],[[[33.113,38.70275],[33.11325,38.70275],[33.11325,38.7025],[33.113,38.7025],[33.113,38.70275]]],[[[33.22925,38.691],[33.22925,38.69075],[33.229,38.69075],[33.229,38.691],[33.22925,38.691]]],[[[33.16725,38.68175],[33.1675,38.68175],[33.1675,38.6815],[33.16725,38.6815],[33.16725,38.68175]]],[[[33.535,38.67025],[33.53525,38.67025],[33.53525,38.67],[33.535,38.67],[33.535,38.67025]]],[[[33.23075,38.66925],[33.231,38.66925],[33.231,38.669],[33.23075,38.669],[33.23075,38.66925]]],[[[33.53475,38.62875],[33.535,38.62875],[33.535,38.6285],[33.53475,38.6285],[33.53475,38.62875]]],[[[33.28025,38.59675],[33.2805,38.59675],[33.2805,38.5965],[33.28025,38.5965],[33.28025,38.59675]]],[[[33.38375,38.56375],[33.384,38.56375],[33.384,38.5635],[33.38375,38.5635],[33.38375,38.56375]]],[[[33.35325,38.561],[33.3535,38.561],[33.3535,38.56075],[33.35325,38.56075],[33.35325,38.561]]],[[[33.40825,38.561],[33.4085,38.561],[33.4085,38.56075],[33.40825,38.56075],[33.40825,38.561]]],[[[33.45175,38.53025],[33.452,38.53025],[33.452,38.53],[33.45175,38.53],[33.45175,38.53025]]],[[[33.4775,38.5225],[33.4775,38.52225],[33.47725,38.52225],[33.47725,38.5225],[33.4775,38.5225]]],[[[33.4245,38.521],[33.4245,38.52075],[33.42425,38.52075],[33.42425,38.521],[33.4245,38.521]]],[[[33.487,38.50875],[33.48725,38.50875],[33.48725,38.5085],[33.487,38.5085],[33.487,38.50875]]],[[[33.44975,38.5085],[33.45,38.5085],[33.45,38.50825],[33.44975,38.50825],[33.44975,38.5085]]],[[[33.5085,38.501],[33.50875,38.501],[33.50875,38.50075],[33.5085,38.50075],[33.5085,38.501]]],[[[33.46,38.498],[33.46,38.49775],[33.45975,38.49775],[33.45975,38.498],[33.46,38.498]]],[[[33.434,38.95075],[33.43425,38.95075],[33.43425,38.9505],[33.434,38.9505],[33.434,38.95075]]],[[[33.281,38.921],[33.28125,38.921],[33.28125,38.92075],[33.281,38.92075],[33.281,38.921]]],[[[33.28825,38.9205],[33.2885,38.9205],[33.2885,38.92025],[33.28825,38.92025],[33.28825,38.9205]]],[[[33.2745,38.91825],[33.27475,38.91825],[33.27475,38.918],[33.2745,38.918],[33.2745,38.91825]]],[[[33.27475,38.918],[33.275,38.918],[33.275,38.91775],[33.27475,38.91775],[33.27475,38.918]]],[[[33.22225,38.90975],[33.2225,38.90975],[33.2225,38.9095],[33.22225,38.9095],[33.22225,38.90975]]],[[[33.2245,38.90825],[33.22475,38.90825],[33.22475,38.908],[33.2245,38.908],[33.2245,38.90825]]],[[[33.21425,38.88675],[33.2145,38.88675],[33.2145,38.8865],[33.21425,38.8865],[33.21425,38.88675]]],[[[33.16875,38.87525],[33.169,38.87525],[33.169,38.875],[33.16875,38.875],[33.16875,38.87525]]],[[[33.1705,38.8745],[33.17075,38.8745],[33.17075,38.87425],[33.1705,38.87425],[33.1705,38.8745]]],[[[33.4195,38.8735],[33.41975,38.8735],[33.41975,38.87325],[33.4195,38.87325],[33.4195,38.8735]]],[[[33.1975,38.85825],[33.19775,38.85825],[33.19775,38.858],[33.1975,38.858],[33.1975,38.85825]]],[[[33.18675,38.83875],[33.187,38.83875],[33.187,38.8385],[33.18675,38.8385],[33.18675,38.83875]]],[[[33.14175,38.83225],[33.142,38.83225],[33.142,38.832],[33.14175,38.832],[33.14175,38.83225]]],[[[33.167,38.81775],[33.16725,38.81775],[33.16725,38.8175],[33.167,38.8175],[33.167,38.81775]]],[[[33.506,38.77875],[33.50625,38.77875],[33.50625,38.7785],[33.506,38.7785],[33.506,38.77875]]],[[[33.12,38.75425],[33.12025,38.75425],[33.12025,38.754],[33.12,38.754],[33.12,38.75425]]],[[[33.531,38.75],[33.53125,38.75],[33.53125,38.74975],[33.531,38.74975],[33.531,38.75]]],[[[33.53125,38.74975],[33.5315,38.74975],[33.5315,38.7495],[33.53125,38.7495],[33.53125,38.74975]]],[[[33.52675,38.74275],[33.527,38.74275],[33.527,38.7425],[33.52675,38.7425],[33.52675,38.74275]]],[[[33.53275,38.73975],[33.533,38.73975],[33.533,38.7395],[33.53275,38.7395],[33.53275,38.73975]]],[[[33.17325,38.73725],[33.1735,38.73725],[33.1735,38.737],[33.17325,38.737],[33.17325,38.73725]]],[[[33.53275,38.73625],[33.533,38.73625],[33.533,38.736],[33.53275,38.736],[33.53275,38.73625]]],[[[33.19025,38.7285],[33.1905,38.7285],[33.1905,38.72825],[33.19025,38.72825],[33.19025,38.7285]]],[[[33.1925,38.72575],[33.19275,38.72575],[33.19275,38.7255],[33.1925,38.7255],[33.1925,38.72575]]],[[[33.54375,38.71175],[33.544,38.71175],[33.544,38.7115],[33.54375,38.7115],[33.54375,38.71175]]],[[[33.16525,38.70575],[33.1655,38.70575],[33.1655,38.7055],[33.16525,38.7055],[33.16525,38.70575]]],[[[33.55475,38.7045],[33.555,38.7045],[33.555,38.70425],[33.55475,38.70425],[33.55475,38.7045]]],[[[33.22625,38.698],[33.22625,38.69775],[33.226,38.69775],[33.226,38.698],[33.22625,38.698]]],[[[33.172,38.6975],[33.17225,38.6975],[33.17225,38.69725],[33.172,38.69725],[33.172,38.6975]]],[[[33.2275,38.6905],[33.22775,38.6905],[33.22775,38.69025],[33.2275,38.69025],[33.2275,38.6905]]],[[[33.219,38.68275],[33.21925,38.68275],[33.21925,38.6825],[33.219,38.6825],[33.219,38.68275]]],[[[33.167,38.682],[33.16725,38.682],[33.16725,38.68175],[33.167,38.68175],[33.167,38.682]]],[[[33.23775,38.67175],[33.238,38.67175],[33.238,38.6715],[33.23775,38.6715],[33.23775,38.67175]]],[[[33.52625,38.627],[33.5265,38.627],[33.5265,38.62675],[33.52625,38.62675],[33.52625,38.627]]],[[[33.529,38.608],[33.52925,38.608],[33.52925,38.60775],[33.529,38.60775],[33.529,38.608]]],[[[33.529,38.607],[33.52925,38.607],[33.52925,38.60675],[33.529,38.60675],[33.529,38.607]]],[[[33.30075,38.601],[33.30075,38.60075],[33.3005,38.60075],[33.3005,38.601],[33.30075,38.601]]],[[[33.5255,38.60075],[33.52575,38.60075],[33.52575,38.6005],[33.5255,38.6005],[33.5255,38.60075]]],[[[33.295,38.59825],[33.29525,38.59825],[33.29525,38.598],[33.295,38.598],[33.295,38.59825]]],[[[33.28125,38.5965],[33.2815,38.5965],[33.2815,38.59625],[33.28125,38.59625],[33.28125,38.5965]]],[[[33.5045,38.589],[33.50475,38.589],[33.50475,38.58875],[33.5045,38.58875],[33.5045,38.589]]],[[[33.512,38.5815],[33.51225,38.5815],[33.51225,38.58125],[33.512,38.58125],[33.512,38.5815]]],[[[33.3475,38.577],[33.34775,38.577],[33.34775,38.57675],[33.3475,38.57675],[33.3475,38.577]]],[[[33.3655,38.57325],[33.36575,38.57325],[33.36575,38.573],[33.3655,38.573],[33.3655,38.57325]]],[[[33.35125,38.5695],[33.3515,38.5695],[33.3515,38.56925],[33.35125,38.56925],[33.35125,38.5695]]],[[[33.356,38.56],[33.35625,38.56],[33.35625,38.55975],[33.356,38.55975],[33.356,38.56]]],[[[33.42625,38.5515],[33.4265,38.5515],[33.4265,38.55125],[33.42625,38.55125],[33.42625,38.5515]]],[[[33.3815,38.5465],[33.38175,38.5465],[33.38175,38.54625],[33.3815,38.54625],[33.3815,38.5465]]],[[[33.47575,38.54425],[33.476,38.54425],[33.476,38.544],[33.47575,38.544],[33.47575,38.54425]]],[[[33.40175,38.535],[33.402,38.535],[33.402,38.53475],[33.40175,38.53475],[33.40175,38.535]]],[[[33.38125,38.534],[33.38125,38.53375],[33.381,38.53375],[33.381,38.534],[33.38125,38.534]]],[[[33.3835,38.53325],[33.38375,38.53325],[33.38375,38.533],[33.3835,38.533],[33.3835,38.53325]]],[[[33.4105,38.51875],[33.41075,38.51875],[33.41075,38.5185],[33.4105,38.5185],[33.4105,38.51875]]],[[[33.48525,38.515],[33.48525,38.51475],[33.485,38.51475],[33.485,38.515],[33.48525,38.515]]],[[[33.48825,38.51475],[33.4885,38.51475],[33.4885,38.5145],[33.48825,38.5145],[33.48825,38.51475]]],[[[33.48425,38.5145],[33.4845,38.5145],[33.4845,38.51425],[33.48425,38.51425],[33.48425,38.5145]]],[[[33.44825,38.514],[33.44825,38.51375],[33.448,38.51375],[33.448,38.514],[33.44825,38.514]]],[[[33.4425,38.514],[33.44275,38.514],[33.44275,38.51375],[33.4425,38.51375],[33.4425,38.514]]],[[[33.4395,38.5105],[33.43975,38.5105],[33.43975,38.51025],[33.4395,38.51025],[33.4395,38.5105]]],[[[33.49075,38.51025],[33.491,38.51025],[33.491,38.51],[33.49075,38.51],[33.49075,38.51025]]],[[[33.485,38.50975],[33.48525,38.50975],[33.48525,38.5095],[33.485,38.5095],[33.485,38.50975]]],[[[33.482,38.5075],[33.48225,38.5075],[33.48225,38.50725],[33.482,38.50725],[33.482,38.5075]]],[[[33.49475,38.50625],[33.495,38.50625],[33.495,38.506],[33.49475,38.506],[33.49475,38.50625]]],[[[33.483,38.504],[33.48325,38.504],[33.48325,38.50375],[33.483,38.50375],[33.483,38.504]]],[[[33.50575,38.50225],[33.506,38.50225],[33.506,38.502],[33.50575,38.502],[33.50575,38.50225]]],[[[33.5105,38.499],[33.51075,38.499],[33.51075,38.49875],[33.5105,38.49875],[33.5105,38.499]]],[[[33.50575,38.49525],[33.506,38.49525],[33.506,38.495],[33.50575,38.495],[33.50575,38.49525]]],[[[33.50875,38.4905],[33.509,38.4905],[33.509,38.49025],[33.50875,38.49025],[33.50875,38.4905]]],[[[33.515,38.48975],[33.51525,38.48975],[33.51525,38.4895],[33.515,38.4895],[33.515,38.48975]]],[[[33.52525,38.47025],[33.5255,38.47025],[33.5255,38.47],[33.52525,38.47],[33.52525,38.47025]]],[[[33.53025,38.47],[33.5305,38.47],[33.5305,38.46975],[33.53025,38.46975],[33.53025,38.47]]],[[[33.529,38.45375],[33.52925,38.45375],[33.52925,38.4535],[33.529,38.4535],[33.529,38.45375]]],[[[33.49875,38.44775],[33.49875,38.4475],[33.4985,38.4475],[33.4985,38.44775],[33.49875,38.44775]]],[[[33.52575,38.445],[33.526,38.445],[33.526,38.44475],[33.52575,38.44475],[33.52575,38.445]]],[[[33.29825,39.119],[33.29825,39.11875],[33.298,39.11875],[33.298,39.119],[33.29825,39.119]]],[[[33.33025,39.0285],[33.33025,39.02825],[33.33,39.02825],[33.33,39.0285],[33.33025,39.0285]]],[[[33.34125,38.98525],[33.3415,38.98525],[33.3415,38.985],[33.34125,38.985],[33.34125,38.98525]]],[[[33.28075,38.91925],[33.281,38.91925],[33.281,38.919],[33.28075,38.919],[33.28075,38.91925]]],[[[33.251,38.90875],[33.25125,38.90875],[33.25125,38.9085],[33.251,38.9085],[33.251,38.90875]]],[[[33.1475,38.84675],[33.14775,38.84675],[33.14775,38.8465],[33.1475,38.8465],[33.1475,38.84675]]],[[[33.189,38.84375],[33.18925,38.84375],[33.18925,38.8435],[33.189,38.8435],[33.189,38.84375]]],[[[33.124,38.8095],[33.12425,38.8095],[33.12425,38.80925],[33.124,38.80925],[33.124,38.8095]]],[[[33.17275,38.7345],[33.173,38.7345],[33.173,38.73425],[33.17275,38.73425],[33.17275,38.7345]]],[[[33.20425,38.70775],[33.2045,38.70775],[33.2045,38.7075],[33.20425,38.7075],[33.20425,38.70775]]],[[[33.53225,38.68325],[33.5325,38.68325],[33.5325,38.683],[33.53225,38.683],[33.53225,38.68325]]],[[[33.224,38.67975],[33.224,38.6795],[33.22375,38.6795],[33.22375,38.67975],[33.224,38.67975]]],[[[33.23275,38.6775],[33.233,38.6775],[33.233,38.67725],[33.23275,38.67725],[33.23275,38.6775]]],[[[33.22125,38.677],[33.2215,38.677],[33.2215,38.67675],[33.22125,38.67675],[33.22125,38.677]]],[[[33.1635,38.672],[33.16375,38.672],[33.16375,38.67175],[33.1635,38.67175],[33.1635,38.672]]],[[[33.5385,38.6665],[33.53875,38.6665],[33.53875,38.66625],[33.5385,38.66625],[33.5385,38.6665]]],[[[33.307,38.5945],[33.307,38.59425],[33.30675,38.59425],[33.30675,38.5945],[33.307,38.5945]]],[[[33.50225,38.5845],[33.5025,38.5845],[33.5025,38.58425],[33.50225,38.58425],[33.50225,38.5845]]],[[[33.38875,38.57075],[33.38875,38.5705],[33.3885,38.5705],[33.3885,38.57075],[33.38875,38.57075]]],[[[33.3915,38.55875],[33.39175,38.55875],[33.39175,38.5585],[33.3915,38.5585],[33.3915,38.55875]]],[[[33.48125,38.5455],[33.48125,38.54525],[33.481,38.54525],[33.481,38.5455],[33.48125,38.5455]]],[[[33.476,38.544],[33.47625,38.544],[33.47625,38.54375],[33.476,38.54375],[33.476,38.544]]],[[[33.476,38.54375],[33.476,38.5435],[33.47575,38.5435],[33.47575,38.54375],[33.476,38.54375]]],[[[33.4665,38.54375],[33.46675,38.54375],[33.46675,38.5435],[33.4665,38.5435],[33.4665,38.54375]]],[[[33.42275,38.54275],[33.42275,38.5425],[33.4225,38.5425],[33.4225,38.54275],[33.42275,38.54275]]],[[[33.4415,38.538],[33.4415,38.53775],[33.44125,38.53775],[33.44125,38.538],[33.4415,38.538]]],[[[33.433,38.53775],[33.433,38.5375],[33.43275,38.5375],[33.43275,38.53775],[33.433,38.53775]]],[[[33.401,38.535],[33.40125,38.535],[33.40125,38.53475],[33.401,38.53475],[33.401,38.535]]],[[[33.45875,38.53475],[33.459,38.53475],[33.459,38.5345],[33.45875,38.5345],[33.45875,38.53475]]],[[[33.47375,38.527],[33.474,38.527],[33.474,38.52675],[33.47375,38.52675],[33.47375,38.527]]],[[[33.41675,38.52675],[33.417,38.52675],[33.417,38.5265],[33.41675,38.5265],[33.41675,38.52675]]],[[[33.41225,38.51725],[33.4125,38.51725],[33.4125,38.517],[33.41225,38.517],[33.41225,38.51725]]],[[[33.5055,38.50275],[33.50575,38.50275],[33.50575,38.5025],[33.5055,38.5025],[33.5055,38.50275]]]]}},
{"type":"Feature","properties":{"id":"gsw-02","name":"Akşehir Gölü","wikidata":"Q617319","areaKm2":194.1415,"rings":10,"nodes":167,"identity":{"minLon":31.408,"maxLon":31.416,"minLat":38.495,"maxLat":38.503},"window":{"minLon":31.24,"maxLon":31.57,"minLat":38.38,"maxLat":38.66},"identityNeighbourPx":67,"componentsIdentity":1,"componentsTotal":196,"componentsUsed":147,"extentCoveragePct":100},"geometry":{"type":"MultiPolygon","coordinates":[[[[31.49925,38.5975],[31.50025,38.5935],[31.498,38.592],[31.497,38.589],[31.49925,38.57925],[31.49725,38.57725],[31.4935,38.57625],[31.49275,38.57275],[31.4905,38.57175],[31.488,38.566],[31.489,38.559],[31.48675,38.557],[31.486,38.55375],[31.4875,38.55125],[31.49,38.551],[31.49075,38.54725],[31.49,38.5415],[31.49125,38.538],[31.4875,38.53575],[31.48725,38.532],[31.49075,38.53],[31.49425,38.5305],[31.496,38.526],[31.499,38.52475],[31.5005,38.5115],[31.498,38.50725],[31.49925,38.50475],[31.496,38.504],[31.49575,38.5015],[31.49175,38.499],[31.487,38.49225],[31.4845,38.492],[31.479,38.48725],[31.47575,38.4865],[31.472,38.47925],[31.4685,38.47675],[31.46625,38.4695],[31.4685,38.4655],[31.46775,38.46125],[31.46375,38.4565],[31.467,38.451],[31.47325,38.4485],[31.4715,38.44725],[31.46,38.44825],[31.454,38.444],[31.44675,38.44425],[31.4455,38.44075],[31.44075,38.44075],[31.438,38.437],[31.433,38.4365],[31.4285,38.434],[31.409,38.43575],[31.39225,38.442],[31.3865,38.4415],[31.38325,38.43975],[31.37925,38.4435],[31.36975,38.4435],[31.369,38.44625],[31.36725,38.447],[31.36725,38.45025],[31.362,38.45575],[31.36275,38.46075],[31.36075,38.4635],[31.36025,38.46875],[31.351,38.47625],[31.34625,38.4855],[31.3325,38.49775],[31.32675,38.506],[31.32,38.511],[31.3185,38.515],[31.31575,38.51625],[31.31425,38.52],[31.307,38.5285],[31.3045,38.536],[31.29925,38.541],[31.29925,38.5455],[31.3035,38.5495],[31.304,38.554],[31.309,38.5545],[31.31,38.55575],[31.315,38.55575],[31.32,38.56025],[31.33,38.56075],[31.33425,38.5585],[31.336,38.55375],[31.3385,38.5525],[31.34475,38.553],[31.34825,38.5515],[31.35375,38.552],[31.357,38.551],[31.36875,38.55325],[31.374,38.5525],[31.37825,38.54975],[31.385,38.55475],[31.40625,38.5665],[31.4155,38.579],[31.43775,38.587],[31.43975,38.589],[31.444,38.58925],[31.44975,38.5915],[31.458,38.59125],[31.46675,38.59375],[31.46975,38.593],[31.48375,38.59525],[31.48625,38.5945],[31.49,38.59625],[31.49925,38.5975]]],[[[31.51625,38.5935],[31.5185,38.593],[31.51725,38.59025],[31.5135,38.588],[31.51275,38.59],[31.51425,38.592],[31.51625,38.5935]]],[[[31.35575,38.435],[31.3585,38.435],[31.358,38.4325],[31.35175,38.43525],[31.35175,38.437],[31.35575,38.435]]],[[[31.3615,38.44075],[31.3625,38.44075],[31.3625,38.4405],[31.36225,38.4405],[31.36225,38.44025],[31.362,38.44025],[31.362,38.44],[31.36175,38.44],[31.36175,38.43975],[31.36125,38.43975],[31.36125,38.44],[31.36075,38.44],[31.36075,38.44025],[31.36125,38.44025],[31.36125,38.4405],[31.3615,38.4405],[31.3615,38.44075]]],[[[31.49625,38.5585],[31.49675,38.5585],[31.49675,38.55825],[31.49625,38.55825],[31.49625,38.5585]]],[[[31.49775,38.5585],[31.498,38.5585],[31.498,38.558],[31.49775,38.558],[31.49775,38.5585]]],[[[31.4995,38.50475],[31.49975,38.50475],[31.49975,38.5045],[31.4995,38.5045],[31.4995,38.50475]]],[[[31.513,38.575],[31.51325,38.575],[31.51325,38.57475],[31.513,38.57475],[31.513,38.575]]],[[[31.49875,38.52525],[31.499,38.52525],[31.499,38.525],[31.49875,38.525],[31.49875,38.52525]]],[[[31.4455,38.44075],[31.44575,38.44075],[31.44575,38.4405],[31.4455,38.4405],[31.4455,38.44075]]]]}},
{"type":"Feature","properties":{"id":"gsw-03","name":"Eber Gölü","wikidata":"Q1284379","areaKm2":109.8868,"rings":6,"nodes":161,"identity":{"minLon":31.217,"maxLon":31.225,"minLat":38.64,"maxLat":38.648},"window":{"minLon":31.01,"maxLon":31.33,"minLat":38.54,"maxLat":38.78},"identityNeighbourPx":67,"componentsIdentity":1,"componentsTotal":339,"componentsUsed":307,"extentCoveragePct":95.64},"geometry":{"type":"MultiPolygon","coordinates":[[[[31.20775,38.71275],[31.21375,38.708],[31.21275,38.70325],[31.216,38.7015],[31.21525,38.697],[31.21825,38.694],[31.219,38.684],[31.217,38.6805],[31.21875,38.67475],[31.222,38.67475],[31.22275,38.67675],[31.23125,38.6805],[31.233,38.6825],[31.23475,38.68275],[31.236,38.68075],[31.23875,38.681],[31.24,38.6835],[31.239,38.6865],[31.241,38.6885],[31.24175,38.6935],[31.2445,38.6955],[31.2445,38.691],[31.247,38.688],[31.25425,38.68825],[31.25,38.6835],[31.25025,38.6775],[31.247,38.67475],[31.24675,38.67025],[31.2435,38.6695],[31.2395,38.67175],[31.23725,38.67075],[31.23775,38.66575],[31.23625,38.6615],[31.241,38.65825],[31.24625,38.661],[31.24875,38.661],[31.25925,38.67175],[31.25925,38.6635],[31.262,38.661],[31.25675,38.65625],[31.254,38.65775],[31.24975,38.6535],[31.2445,38.6535],[31.2425,38.6515],[31.2425,38.64925],[31.2395,38.64825],[31.2405,38.636],[31.2435,38.62925],[31.2395,38.62625],[31.23775,38.62175],[31.232,38.6185],[31.228,38.611],[31.2285,38.6175],[31.22375,38.62025],[31.21425,38.61975],[31.20675,38.622],[31.19475,38.62],[31.18175,38.62125],[31.1775,38.6205],[31.17425,38.6175],[31.16375,38.61675],[31.1615,38.615],[31.15225,38.6145],[31.15025,38.61325],[31.132,38.61375],[31.129,38.61125],[31.1215,38.61225],[31.11925,38.6105],[31.1145,38.6095],[31.11375,38.6065],[31.1105,38.606],[31.10575,38.60775],[31.10325,38.607],[31.09525,38.608],[31.0935,38.61275],[31.091,38.6145],[31.0905,38.61825],[31.078,38.62125],[31.07475,38.627],[31.0695,38.6275],[31.0705,38.63225],[31.06875,38.6345],[31.06775,38.64175],[31.0705,38.6445],[31.07425,38.64525],[31.07625,38.644],[31.084,38.644],[31.0865,38.64175],[31.09,38.6425],[31.09325,38.64125],[31.09575,38.643],[31.09425,38.648],[31.096,38.64925],[31.09725,38.6455],[31.1005,38.64425],[31.10375,38.64775],[31.1035,38.65075],[31.10675,38.65],[31.10825,38.6525],[31.1105,38.65175],[31.11375,38.6535],[31.114,38.6565],[31.1105,38.6595],[31.11025,38.66225],[31.11675,38.6715],[31.11575,38.6745],[31.11125,38.67775],[31.113,38.6805],[31.1115,38.6835],[31.11425,38.68425],[31.11425,38.688],[31.116,38.6895],[31.11925,38.6905],[31.1225,38.68975],[31.126,38.692],[31.13025,38.69225],[31.13375,38.69425],[31.134,38.6965],[31.1355,38.69475],[31.1395,38.6935],[31.14325,38.695],[31.147,38.694],[31.149,38.69475],[31.1565,38.69125],[31.1635,38.6905],[31.16575,38.68875],[31.17075,38.6915],[31.17675,38.68875],[31.17875,38.68975],[31.17925,38.693],[31.1835,38.6945],[31.18525,38.69975],[31.1895,38.70275],[31.19,38.70675],[31.199,38.7115],[31.20775,38.71275]]],[[[31.092,38.653],[31.0925,38.653],[31.0925,38.6525],[31.092,38.6525],[31.092,38.653]]],[[[31.24525,38.69575],[31.2455,38.69575],[31.2455,38.6955],[31.24525,38.6955],[31.24525,38.69575]]],[[[31.1135,38.669],[31.11375,38.669],[31.11375,38.66875],[31.1135,38.66875],[31.1135,38.669]]],[[[31.108,38.65275],[31.10825,38.65275],[31.10825,38.6525],[31.108,38.6525],[31.108,38.65275]]],[[[31.09625,38.64975],[31.0965,38.64975],[31.0965,38.6495],[31.09625,38.6495],[31.09625,38.64975]]]]}},
{"type":"Feature","properties":{"id":"gsw-04","name":"Tersakan Gölü","wikidata":"Q6161851","areaKm2":50.6258,"rings":15,"nodes":171,"identity":{"minLon":33.081,"maxLon":33.089,"minLat":38.581,"maxLat":38.589},"window":{"minLon":32.96,"maxLon":33.19,"minLat":38.49,"maxLat":38.71},"identityNeighbourPx":67,"componentsIdentity":1,"componentsTotal":755,"componentsUsed":459,"extentCoveragePct":93.67},"geometry":{"type":"MultiPolygon","coordinates":[[[[33.03475,38.64825],[33.03825,38.64675],[33.04025,38.64425],[33.0405,38.64075],[33.04425,38.63525],[33.04775,38.63525],[33.05775,38.639],[33.06275,38.6395],[33.0745,38.63675],[33.07975,38.63325],[33.09,38.616],[33.096,38.6015],[33.10925,38.59175],[33.112,38.591],[33.12225,38.57675],[33.13025,38.57125],[33.1275,38.56925],[33.12725,38.56475],[33.1245,38.5645],[33.1225,38.56075],[33.12275,38.567],[33.1195,38.56925],[33.11675,38.569],[33.116,38.56525],[33.11275,38.5645],[33.11275,38.561],[33.115,38.55975],[33.117,38.56025],[33.11675,38.556],[33.119,38.55475],[33.11975,38.55125],[33.1185,38.5485],[33.11625,38.5475],[33.11525,38.5435],[33.11375,38.54525],[33.10925,38.54425],[33.10475,38.54675],[33.099,38.54525],[33.0965,38.5465],[33.09275,38.54475],[33.08975,38.5455],[33.08925,38.5475],[33.086,38.54975],[33.08325,38.54875],[33.083,38.546],[33.079,38.54625],[33.07775,38.55125],[33.0745,38.5525],[33.07075,38.5575],[33.067,38.5585],[33.06925,38.55925],[33.071,38.56225],[33.06975,38.5665],[33.06525,38.56775],[33.06425,38.57025],[33.058,38.57275],[33.0575,38.57625],[33.05575,38.57775],[33.057,38.58],[33.056,38.58225],[33.051,38.582],[33.048,38.584],[33.0505,38.58625],[33.055,38.5865],[33.0575,38.58925],[33.05775,38.592],[33.056,38.59325],[33.05675,38.59775],[33.053,38.59925],[33.04775,38.59925],[33.04325,38.59725],[33.03175,38.595],[33.03275,38.60275],[33.0265,38.60875],[33.023,38.62025],[33.02575,38.62125],[33.02675,38.619],[33.03,38.61825],[33.03275,38.615],[33.0405,38.6175],[33.0415,38.62],[33.039,38.6245],[33.034,38.6255],[33.03275,38.62775],[33.02575,38.629],[33.021,38.63325],[33.01975,38.636],[33.02225,38.6395],[33.022,38.64525],[33.02475,38.6455],[33.02925,38.6435],[33.03175,38.6445],[33.03475,38.64825]]],[[[33.063,38.563],[33.06375,38.563],[33.06375,38.5625],[33.06325,38.5625],[33.06325,38.56275],[33.063,38.56275],[33.063,38.563]]],[[[33.08425,38.54475],[33.085,38.54475],[33.085,38.54425],[33.0845,38.54425],[33.0845,38.5445],[33.08425,38.5445],[33.08425,38.54475]]],[[[33.0515,38.56925],[33.05225,38.56925],[33.05225,38.56875],[33.052,38.56875],[33.052,38.569],[33.0515,38.569],[33.0515,38.56925]]],[[[33.044,38.56775],[33.04425,38.56775],[33.04425,38.56725],[33.0445,38.56725],[33.0445,38.567],[33.044,38.567],[33.044,38.56775]]],[[[33.047,38.5845],[33.04775,38.5845],[33.04775,38.58425],[33.047,38.58425],[33.047,38.5845]]],[[[33.11525,38.5435],[33.1155,38.5435],[33.1155,38.543],[33.11525,38.543],[33.11525,38.5435]]],[[[33.116,38.56525],[33.11625,38.56525],[33.11625,38.565],[33.116,38.565],[33.116,38.56525]]],[[[33.12725,38.56475],[33.1275,38.56475],[33.1275,38.5645],[33.12725,38.5645],[33.12725,38.56475]]],[[[33.1305,38.571],[33.13075,38.571],[33.13075,38.57075],[33.1305,38.57075],[33.1305,38.571]]],[[[33.04375,38.5685],[33.044,38.5685],[33.044,38.56825],[33.04375,38.56825],[33.04375,38.5685]]],[[[33.1235,38.558],[33.12375,38.558],[33.12375,38.55775],[33.1235,38.55775],[33.1235,38.558]]],[[[33.083,38.546],[33.08325,38.546],[33.08325,38.54575],[33.083,38.54575],[33.083,38.546]]],[[[33.085,38.54425],[33.08525,38.54425],[33.08525,38.544],[33.085,38.544],[33.085,38.54425]]],[[[33.084,38.545],[33.08425,38.545],[33.08425,38.54475],[33.084,38.54475],[33.084,38.545]]]]}},
{"type":"Feature","properties":{"id":"gsw-05","name":"Marmara Gölü","wikidata":"Q1093090","areaKm2":61.3955,"rings":2,"nodes":77,"identity":{"minLon":28.041,"maxLon":28.049,"minLat":38.616,"maxLat":38.624},"window":{"minLon":27.87,"maxLon":28.16,"minLat":38.53,"maxLat":38.73},"identityNeighbourPx":67,"componentsIdentity":1,"componentsTotal":49,"componentsUsed":26,"extentCoveragePct":99.54},"geometry":{"type":"MultiPolygon","coordinates":[[[[28.0165,38.66025],[28.0225,38.65675],[28.035,38.6555],[28.039,38.65225],[28.04525,38.6535],[28.048,38.65125],[28.05175,38.651],[28.054,38.64725],[28.05525,38.64025],[28.059,38.6405],[28.06175,38.644],[28.06825,38.641],[28.078,38.64025],[28.0865,38.634],[28.087,38.6295],[28.09075,38.62675],[28.0895,38.62425],[28.0685,38.60625],[28.0625,38.59675],[28.05025,38.59125],[28.049,38.591],[28.04875,38.59425],[28.04525,38.59725],[28.03725,38.597],[28.03525,38.59925],[28.027,38.6015],[28.02425,38.60025],[28.01825,38.6035],[28.0075,38.60275],[28.0035,38.59825],[28.00025,38.59775],[27.99875,38.59525],[27.9935,38.5965],[27.9835,38.59575],[27.97675,38.5975],[27.96075,38.60525],[27.959,38.60925],[27.9545,38.612],[27.95225,38.61625],[27.94925,38.617],[27.947,38.6195],[27.94275,38.6195],[27.942,38.62125],[27.938,38.62225],[27.93625,38.6265],[27.93425,38.6275],[27.936,38.638],[27.94325,38.64325],[27.948,38.64075],[27.95825,38.64475],[27.967,38.643],[27.97225,38.648],[27.97525,38.6495],[27.98,38.6495],[27.98225,38.652],[27.9855,38.65275],[27.9875,38.646],[27.99575,38.6455],[27.99975,38.6495],[28.00325,38.64725],[28.0015,38.64525],[28.00175,38.6425],[28.00625,38.6395],[28.01325,38.64175],[28.0145,38.64025],[28.02325,38.63825],[28.0245,38.64225],[28.02025,38.6495],[28.01825,38.6505],[28.018,38.65375],[28.01525,38.656],[28.0165,38.66025]]],[[[27.995,38.6635],[27.99525,38.6635],[27.99525,38.66325],[27.995,38.66325],[27.995,38.6635]]]]}},
{"type":"Feature","properties":{"id":"gsw-06","name":"Karamık Gölü","wikidata":"Q6151136","areaKm2":37.7678,"rings":21,"nodes":175,"identity":{"minLon":30.838,"maxLon":30.846,"minLat":38.428,"maxLat":38.436},"window":{"minLon":30.71,"maxLon":30.96,"minLat":38.33,"maxLat":38.54},"identityNeighbourPx":67,"componentsIdentity":1,"componentsTotal":151,"componentsUsed":129,"extentCoveragePct":95.26},"geometry":{"type":"MultiPolygon","coordinates":[[[[30.85975,38.47],[30.873,38.46825],[30.87725,38.463],[30.87525,38.4565],[30.877,38.452],[30.87675,38.4455],[30.88325,38.43175],[30.88925,38.42625],[30.8905,38.42275],[30.87875,38.4195],[30.8785,38.4155],[30.875,38.4135],[30.87175,38.41425],[30.8705,38.4125],[30.86775,38.412],[30.86675,38.40975],[30.8645,38.41125],[30.86275,38.41075],[30.862,38.40725],[30.86425,38.40575],[30.862,38.40375],[30.86025,38.405],[30.86075,38.40875],[30.85875,38.40975],[30.857,38.40925],[30.85625,38.40725],[30.846,38.40825],[30.841,38.406],[30.82325,38.412],[30.81875,38.41125],[30.814,38.4075],[30.81275,38.3995],[30.80775,38.39775],[30.796,38.397],[30.78675,38.39925],[30.78225,38.39325],[30.7775,38.3905],[30.77575,38.387],[30.77375,38.3865],[30.7735,38.38875],[30.77175,38.38975],[30.7755,38.3895],[30.77725,38.39225],[30.7755,38.39925],[30.78225,38.40325],[30.78625,38.41425],[30.795,38.4165],[30.79675,38.4195],[30.80375,38.4215],[30.8075,38.42525],[30.81275,38.42575],[30.8145,38.42875],[30.81325,38.4315],[30.8185,38.4385],[30.81975,38.445],[30.82375,38.44975],[30.8365,38.454],[30.84125,38.452],[30.844,38.4525],[30.84775,38.4615],[30.857,38.467],[30.85975,38.47]]],[[[30.79975,38.389],[30.79975,38.3875],[30.797,38.388],[30.79725,38.389],[30.79975,38.389]]],[[[30.84875,38.47175],[30.8455,38.47],[30.84575,38.47125],[30.84875,38.47175]]],[[[30.79475,38.387],[30.79575,38.387],[30.79575,38.38675],[30.7955,38.38675],[30.7955,38.38625],[30.79525,38.38625],[30.79525,38.386],[30.795,38.386],[30.795,38.38575],[30.79475,38.38575],[30.79475,38.3855],[30.7945,38.3855],[30.7945,38.386],[30.79475,38.386],[30.79475,38.387]]],[[[30.89875,38.42125],[30.8995,38.42125],[30.8995,38.42075],[30.89875,38.42075],[30.89875,38.42125]]],[[[30.857,38.405],[30.8575,38.405],[30.8575,38.40475],[30.85725,38.40475],[30.85725,38.4045],[30.85675,38.4045],[30.85675,38.40475],[30.857,38.40475],[30.857,38.405]]],[[[30.862,38.48075],[30.863,38.48075],[30.863,38.4805],[30.862,38.4805],[30.862,38.48075]]],[[[30.807,38.389],[30.80775,38.389],[30.80775,38.38875],[30.807,38.38875],[30.807,38.389]]],[[[30.7895,38.381],[30.78975,38.381],[30.78975,38.3805],[30.7895,38.3805],[30.7895,38.381]]],[[[30.86675,38.40925],[30.867,38.40925],[30.867,38.40875],[30.86675,38.40875],[30.86675,38.40925]]],[[[30.86675,38.40825],[30.86725,38.40825],[30.86725,38.408],[30.86675,38.408],[30.86675,38.40825]]],[[[30.77375,38.3995],[30.77425,38.3995],[30.77425,38.39925],[30.77375,38.39925],[30.77375,38.3995]]],[[[30.898,38.421],[30.89825,38.421],[30.89825,38.42075],[30.898,38.42075],[30.898,38.421]]],[[[30.9,38.42125],[30.90025,38.42125],[30.90025,38.421],[30.9,38.421],[30.9,38.42125]]],[[[30.865,38.406],[30.86525,38.406],[30.86525,38.40575],[30.865,38.40575],[30.865,38.406]]],[[[30.7995,38.3895],[30.79975,38.3895],[30.79975,38.38925],[30.7995,38.38925],[30.7995,38.3895]]],[[[30.807,38.38875],[30.807,38.3885],[30.80675,38.3885],[30.80675,38.38875],[30.807,38.38875]]],[[[30.7945,38.3855],[30.7945,38.38525],[30.79425,38.38525],[30.79425,38.3855],[30.7945,38.3855]]],[[[30.794,38.385],[30.79425,38.385],[30.79425,38.38475],[30.794,38.38475],[30.794,38.385]]],[[[30.89775,38.42125],[30.898,38.42125],[30.898,38.421],[30.89775,38.421],[30.89775,38.42125]]],[[[30.79975,38.3875],[30.8,38.3875],[30.8,38.38725],[30.79975,38.38725],[30.79975,38.3875]]]]}},
{"type":"Feature","properties":{"id":"gsw-07","name":"Seyfe Gölü","wikidata":"Q3383191","areaKm2":63.1696,"rings":13,"nodes":233,"identity":{"minLon":34.381,"maxLon":34.389,"minLat":39.206,"maxLat":39.214},"window":{"minLon":34.29,"maxLon":34.56,"minLat":39.1,"maxLat":39.32},"identityNeighbourPx":67,"componentsIdentity":1,"componentsTotal":456,"componentsUsed":382,"extentCoveragePct":95.36},"geometry":{"type":"MultiPolygon","coordinates":[[[[34.371,39.2575],[34.374,39.2535],[34.375,39.2495],[34.38425,39.24925],[34.38875,39.247],[34.39075,39.24175],[34.4035,39.229],[34.4085,39.22],[34.424,39.209],[34.426,39.2095],[34.427,39.2115],[34.42825,39.21875],[34.427,39.22375],[34.4185,39.229],[34.41275,39.23025],[34.416,39.2345],[34.41425,39.2395],[34.411,39.242],[34.4145,39.244],[34.42,39.24425],[34.425,39.24275],[34.429,39.24575],[34.4325,39.243],[34.435,39.243],[34.436,39.2365],[34.431,39.23625],[34.42775,39.2385],[34.42525,39.23675],[34.4185,39.236],[34.417,39.2335],[34.4235,39.227],[34.4295,39.22725],[34.43075,39.22275],[34.43525,39.22075],[34.4365,39.2185],[34.4325,39.2175],[34.43075,39.21575],[34.43225,39.21125],[34.435,39.21075],[34.43775,39.212],[34.43975,39.21675],[34.44225,39.21625],[34.44575,39.21125],[34.44875,39.21],[34.449,39.2065],[34.447,39.20825],[34.44325,39.2085],[34.43825,39.21075],[34.43275,39.20975],[34.432,39.20625],[34.434,39.2025],[34.437,39.2005],[34.44225,39.2005],[34.448,39.1985],[34.45775,39.20325],[34.46925,39.20175],[34.47575,39.20525],[34.47775,39.2025],[34.48125,39.20175],[34.48325,39.19925],[34.4885,39.201],[34.49175,39.19925],[34.49175,39.19775],[34.4825,39.19775],[34.47275,39.192],[34.47175,39.1885],[34.4755,39.1865],[34.48225,39.18825],[34.4865,39.188],[34.49325,39.1925],[34.49675,39.193],[34.49825,39.19825],[34.502,39.19825],[34.504,39.20025],[34.51025,39.20075],[34.516,39.1985],[34.509,39.19975],[34.505,39.199],[34.5005,39.1935],[34.498,39.18675],[34.49725,39.19075],[34.494,39.19075],[34.4935,39.18675],[34.4955,39.18575],[34.49775,39.18625],[34.49675,39.18425],[34.49375,39.183],[34.4925,39.1755],[34.486,39.1765],[34.483,39.174],[34.4815,39.176],[34.47775,39.17625],[34.47575,39.17375],[34.465,39.168],[34.464,39.166],[34.458,39.164],[34.457,39.162],[34.44425,39.1615],[34.4435,39.1645],[34.4395,39.164],[34.438,39.1665],[34.429,39.16925],[34.41575,39.165],[34.4075,39.16475],[34.39875,39.1685],[34.392,39.16775],[34.384,39.17125],[34.37125,39.17425],[34.36625,39.178],[34.3635,39.18275],[34.36275,39.18775],[34.36525,39.19175],[34.36425,39.19725],[34.362,39.1985],[34.3595,39.1975],[34.35475,39.20575],[34.35575,39.209],[34.36,39.21225],[34.36,39.21775],[34.363,39.22225],[34.36575,39.23775],[34.364,39.24075],[34.3675,39.2405],[34.36925,39.2435],[34.3685,39.247],[34.36475,39.24775],[34.369,39.249],[34.3715,39.252],[34.3695,39.2575],[34.371,39.2575]]],[[[34.38925,39.25325],[34.39425,39.25175],[34.39275,39.25125],[34.38925,39.25325]]],[[[34.3985,39.24875],[34.39925,39.24875],[34.39925,39.2485],[34.399,39.2485],[34.399,39.24825],[34.39875,39.24825],[34.39875,39.24775],[34.3985,39.24775],[34.3985,39.247],[34.39825,39.247],[34.39825,39.24675],[34.398,39.24675],[34.398,39.2465],[34.39775,39.2465],[34.39775,39.246],[34.3975,39.246],[34.3975,39.24575],[34.39725,39.24575],[34.39725,39.2455],[34.39675,39.2455],[34.39675,39.24575],[34.3965,39.24575],[34.3965,39.246],[34.397,39.246],[34.397,39.24625],[34.39725,39.24625],[34.39725,39.2465],[34.3975,39.2465],[34.3975,39.24675],[34.39775,39.24675],[34.39775,39.24725],[34.398,39.24725],[34.398,39.2475],[34.39825,39.2475],[34.39825,39.248],[34.3985,39.248],[34.3985,39.24875]]],[[[34.383,39.2685],[34.3835,39.2685],[34.3835,39.26825],[34.38425,39.26825],[34.38425,39.268],[34.385,39.268],[34.385,39.26775],[34.38525,39.26775],[34.38525,39.2675],[34.384,39.2675],[34.384,39.26775],[34.3835,39.26775],[34.3835,39.268],[34.383,39.268],[34.383,39.2685]]],[[[34.38475,39.2545],[34.386,39.2545],[34.386,39.254],[34.38525,39.254],[34.38525,39.25425],[34.38475,39.25425],[34.38475,39.2545]]],[[[34.4055,39.2385],[34.406,39.2385],[34.406,39.23825],[34.4055,39.23825],[34.4055,39.2385]]],[[[34.4055,39.23775],[34.406,39.23775],[34.406,39.2375],[34.4055,39.2375],[34.4055,39.23775]]],[[[34.438,39.2185],[34.4385,39.2185],[34.4385,39.21825],[34.438,39.21825],[34.438,39.2185]]],[[[34.38625,39.25425],[34.3865,39.25425],[34.3865,39.254],[34.38625,39.254],[34.38625,39.25425]]],[[[34.38825,39.2535],[34.3885,39.2535],[34.3885,39.25325],[34.38825,39.25325],[34.38825,39.2535]]],[[[34.3955,39.25225],[34.39575,39.25225],[34.39575,39.252],[34.3955,39.252],[34.3955,39.25225]]],[[[34.4395,39.164],[34.4395,39.16375],[34.43925,39.16375],[34.43925,39.164],[34.4395,39.164]]],[[[34.49175,39.1995],[34.492,39.1995],[34.492,39.19925],[34.49175,39.19925],[34.49175,39.1995]]]]}},
{"type":"Feature","properties":{"id":"gsw-08","name":"Acıgöl","wikidata":"Q2820091","areaKm2":155.1102,"rings":22,"nodes":289,"identity":{"minLon":29.91,"maxLon":29.918,"minLat":37.842,"maxLat":37.85},"window":{"minLon":29.64,"maxLon":30.04,"minLat":37.71,"maxLat":37.96},"identityNeighbourPx":67,"componentsIdentity":1,"componentsTotal":817,"componentsUsed":760,"extentCoveragePct":94.21},"geometry":{"type":"MultiPolygon","coordinates":[[[[29.941,37.89125],[29.9455,37.88775],[29.94575,37.88375],[29.95025,37.883],[29.95075,37.88075],[29.95525,37.87775],[29.9615,37.8785],[29.96275,37.88125],[29.964,37.87925],[29.9665,37.879],[29.96825,37.8765],[29.969,37.8675],[29.97225,37.867],[29.974,37.86875],[29.97475,37.86675],[29.978,37.8665],[29.978,37.86425],[29.97575,37.864],[29.97475,37.862],[29.97425,37.8575],[29.97625,37.85425],[29.973,37.85275],[29.97275,37.8495],[29.9755,37.847],[29.97325,37.84375],[29.96975,37.8435],[29.969,37.841],[29.965,37.8395],[29.964,37.8375],[29.96125,37.83775],[29.958,37.83575],[29.9545,37.836],[29.95125,37.83075],[29.947,37.8275],[29.94375,37.82675],[29.943,37.82475],[29.94025,37.825],[29.9305,37.82],[29.926,37.81625],[29.92325,37.8185],[29.91425,37.815],[29.91225,37.81125],[29.90925,37.8105],[29.9075,37.80725],[29.90375,37.805],[29.90275,37.802],[29.9,37.80225],[29.88875,37.7955],[29.87475,37.796],[29.87275,37.78975],[29.86525,37.78675],[29.86275,37.78125],[29.85725,37.7785],[29.859,37.7835],[29.85775,37.78475],[29.852,37.78525],[29.85075,37.78725],[29.85225,37.7895],[29.85125,37.79175],[29.84025,37.794],[29.837,37.793],[29.83675,37.789],[29.8345,37.78775],[29.83625,37.781],[29.83425,37.78325],[29.8315,37.783],[29.826,37.77575],[29.82075,37.7765],[29.82,37.77925],[29.81625,37.781],[29.8155,37.78325],[29.81325,37.7845],[29.791,37.77625],[29.78675,37.7775],[29.785,37.77975],[29.778,37.781],[29.76925,37.78575],[29.75375,37.78375],[29.74675,37.78725],[29.7485,37.79075],[29.746,37.7945],[29.73825,37.79625],[29.73425,37.79525],[29.7315,37.79775],[29.7325,37.8],[29.73125,37.80225],[29.72275,37.8035],[29.71575,37.8065],[29.70775,37.81325],[29.703,37.815],[29.6995,37.815],[29.697,37.81275],[29.6955,37.8135],[29.69525,37.816],[29.6975,37.818],[29.70075,37.81975],[29.705,37.8195],[29.7075,37.82175],[29.711,37.82175],[29.7105,37.817],[29.71375,37.81525],[29.72475,37.82125],[29.74175,37.82375],[29.74775,37.82325],[29.752,37.8255],[29.75375,37.8285],[29.75675,37.8295],[29.75675,37.833],[29.75925,37.8355],[29.7645,37.8355],[29.76775,37.8395],[29.7725,37.83975],[29.77375,37.842],[29.778,37.8425],[29.779,37.8445],[29.778,37.8475],[29.78175,37.84875],[29.78525,37.848],[29.793,37.85325],[29.8075,37.85575],[29.81725,37.86125],[29.8195,37.86475],[29.82225,37.86475],[29.8285,37.86975],[29.831,37.86975],[29.835,37.872],[29.84225,37.86975],[29.8465,37.8665],[29.8535,37.868],[29.86075,37.86575],[29.86325,37.86725],[29.86225,37.8635],[29.86475,37.8615],[29.86925,37.86225],[29.871,37.86025],[29.874,37.85975],[29.877,37.86275],[29.88025,37.86075],[29.88375,37.8625],[29.88425,37.86875],[29.8875,37.869],[29.89175,37.874],[29.89475,37.87325],[29.9015,37.8755],[29.912,37.87525],[29.92025,37.88175],[29.92375,37.88075],[29.9265,37.8815],[29.93,37.88425],[29.9305,37.88675],[29.93375,37.8875],[29.93725,37.891],[29.941,37.89125]]],[[[29.90825,37.8885],[29.9105,37.887],[29.919,37.8875],[29.919,37.88475],[29.91475,37.88475],[29.911,37.881],[29.90425,37.883],[29.90825,37.8885]]],[[[29.84375,37.788],[29.84575,37.78575],[29.84375,37.785],[29.84375,37.7815],[29.84275,37.7815],[29.842,37.7855],[29.84375,37.788]]],[[[29.84075,37.77175],[29.84175,37.77175],[29.84175,37.7715],[29.842,37.7715],[29.842,37.77125],[29.84175,37.77125],[29.84175,37.771],[29.841,37.771],[29.841,37.77075],[29.8405,37.77075],[29.8405,37.7705],[29.8395,37.7705],[29.8395,37.77025],[29.83875,37.77025],[29.83875,37.77],[29.8385,37.77],[29.8385,37.77025],[29.83825,37.77025],[29.83825,37.7705],[29.8385,37.7705],[29.8385,37.77075],[29.839,37.77075],[29.839,37.771],[29.8395,37.771],[29.8395,37.77125],[29.84025,37.77125],[29.84025,37.7715],[29.84075,37.7715],[29.84075,37.77175]]],[[[29.97975,37.86275],[29.981,37.86125],[29.98,37.8585],[29.97975,37.86275]]],[[[29.8445,37.77325],[29.84475,37.772],[29.8435,37.772],[29.8445,37.77325]]],[[[29.84525,37.78025],[29.84625,37.78025],[29.84625,37.78],[29.846,37.78],[29.846,37.77925],[29.8455,37.77925],[29.8455,37.78],[29.84525,37.78],[29.84525,37.78025]]],[[[29.8435,37.772],[29.8435,37.77175],[29.843,37.77175],[29.843,37.772],[29.8435,37.772]]],[[[29.978,37.87225],[29.9785,37.87225],[29.9785,37.872],[29.978,37.872],[29.978,37.87225]]],[[[29.842,37.77175],[29.8425,37.77175],[29.8425,37.7715],[29.842,37.7715],[29.842,37.77175]]],[[[29.93025,37.887],[29.9305,37.887],[29.9305,37.88675],[29.93025,37.88675],[29.93025,37.887]]],[[[29.84625,37.786],[29.8465,37.786],[29.8465,37.78575],[29.84625,37.78575],[29.84625,37.786]]],[[[29.96025,37.88375],[29.9605,37.88375],[29.9605,37.8835],[29.96025,37.8835],[29.96025,37.88375]]],[[[29.9715,37.87825],[29.97175,37.87825],[29.97175,37.878],[29.9715,37.878],[29.9715,37.87825]]],[[[29.97675,37.8725],[29.977,37.8725],[29.977,37.87225],[29.97675,37.87225],[29.97675,37.8725]]],[[[29.977,37.87225],[29.97725,37.87225],[29.97725,37.872],[29.977,37.872],[29.977,37.87225]]],[[[29.984,37.85125],[29.98425,37.85125],[29.98425,37.851],[29.984,37.851],[29.984,37.85125]]],[[[29.982,37.85025],[29.98225,37.85025],[29.98225,37.85],[29.982,37.85],[29.982,37.85025]]],[[[29.84325,37.7885],[29.8435,37.7885],[29.8435,37.78825],[29.84325,37.78825],[29.84325,37.7885]]],[[[29.84375,37.7815],[29.844,37.7815],[29.844,37.78125],[29.84375,37.78125],[29.84375,37.7815]]],[[[29.8445,37.77375],[29.84475,37.77375],[29.84475,37.7735],[29.8445,37.7735],[29.8445,37.77375]]],[[[29.978,37.86675],[29.97825,37.86675],[29.97825,37.8665],[29.978,37.8665],[29.978,37.86675]]]]}},
{"type":"Feature","properties":{"id":"gsw-09","name":"Yay Gölü","wikidata":null,"areaKm2":45.1797,"rings":1,"nodes":75,"identity":{"minLon":35.258,"maxLon":35.266,"minLat":38.327,"maxLat":38.335},"window":{"minLon":35.08,"maxLon":35.52,"minLat":38.16,"maxLat":38.52},"identityNeighbourPx":4,"componentsIdentity":1,"componentsTotal":1072,"componentsUsed":95,"extentCoveragePct":97.82},"geometry":{"type":"MultiPolygon","coordinates":[[[[35.2545,38.39725],[35.2545,38.39075],[35.25225,38.3905],[35.25125,38.3885],[35.25375,38.385],[35.26025,38.3855],[35.2625,38.388],[35.26625,38.38475],[35.2725,38.38725],[35.26925,38.3835],[35.26825,38.3775],[35.271,38.37475],[35.269,38.37325],[35.26825,38.36475],[35.2655,38.3595],[35.26975,38.3475],[35.27875,38.3455],[35.2865,38.342],[35.29,38.34225],[35.29475,38.34075],[35.2975,38.34225],[35.29925,38.34175],[35.3015,38.338],[35.3125,38.332],[35.319,38.33475],[35.3225,38.33475],[35.3235,38.33725],[35.322,38.34],[35.3245,38.34325],[35.32825,38.342],[35.33075,38.343],[35.33425,38.34],[35.33425,38.33025],[35.331,38.326],[35.325,38.324],[35.3235,38.32075],[35.324,38.3185],[35.326,38.31775],[35.3265,38.314],[35.33075,38.31225],[35.3305,38.31075],[35.32675,38.30325],[35.322,38.30175],[35.32075,38.298],[35.3175,38.2955],[35.3075,38.2995],[35.30675,38.303],[35.3005,38.30725],[35.296,38.30775],[35.291,38.3045],[35.2815,38.304],[35.2785,38.30925],[35.2625,38.31075],[35.25775,38.31275],[35.25475,38.312],[35.25125,38.3135],[35.24775,38.313],[35.23975,38.3165],[35.24225,38.32225],[35.24125,38.3245],[35.243,38.32675],[35.242,38.33625],[35.24025,38.339],[35.23775,38.33975],[35.2375,38.34475],[35.23375,38.346],[35.23225,38.35325],[35.22875,38.35575],[35.22825,38.3595],[35.231,38.37075],[35.23825,38.3855],[35.2465,38.3945],[35.249,38.3945],[35.252,38.397],[35.2545,38.39725]]]]}}
]
}
